[{"City": "ALFRETON", "Functional_Location": "", "Description": " A WINNING", "District": "BLACKWELL", "Longitude": "-1.3464029", "Y": "357825", "Postal_Code": "DE55 5JY", "Ownership": "STS TCA", "Latitude": "53.115811", "X": "443844", "Street_Housenumber": "FORMER A-WINNING COLLIERY, FORDBRIDGE LANE"}, {"City": "NORTHUMBERLAND", "Functional_Location": "", "Description": " ACOMB", "District": "NEAR HEXHAM", "Longitude": "-2.1153528", "Y": "566130", "Postal_Code": "NE46 4QT", "Ownership": "STS TCA", "Latitude": "54.989705", "X": "392717", "Street_Housenumber": "LAND WEST OF A6079, ACOMB"}, {"City": "", "Functional_Location": "", "Description": " ALLERDEAN MILL", "District": "TD15 2NQ", "Longitude": "-2.0781987", "Y": "646575", "Postal_Code": "TD15 2NQ", "Ownership": "STS TCA", "Latitude": "55.712584", "X": "395185", "Street_Housenumber": "LAND OFF B6354 NORTH OF CAMPHOUSES, NEAR BERWICK UPON TWEED"}, {"City": "LANCASHIRE", "Functional_Location": "", "Description": " ASPULL SOUGH", "District": "WIGAN", "Longitude": "-2.6090964", "Y": "406903", "Postal_Code": "WN2 1DA", "Ownership": "STS TCA", "Latitude": "53.557196", "X": "359748", "Street_Housenumber": "LAND NEAR HAIGH COUNTRY PARK, WHELLEY"}, {"City": "BLYTH", "Functional_Location": "", "Description": " BATES", "District": "COWPEN ROAD", "Longitude": "-1.5287511", "Y": "582053", "Postal_Code": "NE24 5SU", "Ownership": "STS TCA", "Latitude": "55.131935", "X": "430145", "Street_Housenumber": "BATES MWTS, BATES COLLIERY"}, {"City": "PONYTPOOL", "Functional_Location": "", "Description": " BLAENAVON", "District": "BLAENAVON", "Longitude": "-3.0916099", "Y": "208788", "Postal_Code": "NP4 9BP", "Ownership": "STS TCA", "Latitude": "51.772689", "X": "324777", "Street_Housenumber": "RIVER ARCH, FORGESIDE"}, {"City": "CLACKMANNANSHIRE", "Functional_Location": "", "Description": " BLAIRINGONE", "District": "DOLLAR", "Longitude": "-3.63667", "Y": "696929", "Postal_Code": "FK14 7LR", "Ownership": "STS TCA", "Latitude": "56.154188", "X": "298432", "Street_Housenumber": "LAND TO NORTH OF MAINS OF BLAIRINGONE, VICARS BRIDGE ROAD"}, {"City": "NORTHUMBERLAND", "Functional_Location": "", "Description": " BLENKINSOPP", "District": "NEAR HALTWHISTLE", "Longitude": "-2.5254686", "Y": "564632", "Postal_Code": "CA8 7JQ", "Ownership": "STS TCA", "Latitude": "54.975162", "X": "366463", "Street_Housenumber": "LAND TO NORTH EAST OF A69(T), BLENKINSOPP"}, {"City": "EH33 1DX", "Functional_Location": "", "Description": " BLINDWELLS", "District": "TRANENT", "Longitude": "149.124", "Y": "0", "Postal_Code": "EH33 1DX", "Ownership": "STS TCA", "Latitude": "-35.308", "X": "0", "Street_Housenumber": "BLINDWELLS OPENCAST SITE, RIGGONHEAD FARM"}, {"City": "WORSLEY", "Functional_Location": "", "Description": " BRIDGEWATER CANAL", "District": "OFF WORSLEY ROAD", "Longitude": "-2.3795576", "Y": "400482", "Postal_Code": "M28 2NL", "Ownership": "STS TCA", "Latitude": "53.500431", "X": "374920", "Street_Housenumber": "WORSLEY DELPH, SCHOOL BROW"}, {"City": "SOUTH YORKSHIRE", "Functional_Location": "", "Description": " BULLHOUSE", "District": "NEAR PENISTONE", "Longitude": "-1.6817044", "Y": "402069", "Postal_Code": "S36 9FG", "Ownership": "STS TCA", "Latitude": "53.514876", "X": "421204", "Street_Housenumber": "MANCHESTER ROAD, MILLHOUSE GREEN"}, {"City": "STAFFORDSHIRE", "Functional_Location": "", "Description": " CANNOCK WOOD", "District": "CANNOCK", "Longitude": "-1.947657", "Y": "311754", "Postal_Code": "WS12 0QD", "Ownership": "STS TCA", "Latitude": "52.703446", "X": "403634", "Street_Housenumber": "NEW HAYES ROAD, CANNOCK WOOD"}, {"City": "WAKEFIELD WF4 4RH", "Functional_Location": "", "Description": " CAPHOUSE", "District": "OVERTON", "Longitude": "-1.6194156", "Y": "416397", "Postal_Code": "WF4 4RH", "Ownership": "STS TCA", "Latitude": "53.643479", "X": "425258", "Street_Housenumber": "FORMER CAPHOUSE COLLIERY, NEW ROAD"}, {"City": "WEST GLAMORGAN", "Functional_Location": "", "Description": " CRAIG Y ABER", "District": "NEAR KENFIG HILL", "Longitude": "-3.6481479", "Y": "184717", "Postal_Code": "CF32 0BP", "Ownership": "STS TCA", "Latitude": "51.549753", "X": "285819", "Street_Housenumber": "ABERBAIDEN FAR, HEOL-Y-GLO"}, {"City": "WEST CALDER", "Functional_Location": "", "Description": " CUTHILL", "District": "ADDIEWELL", "Longitude": "-3.6074754", "Y": "662707", "Postal_Code": "EH55 8NG", "Ownership": "STS TCA", "Latitude": "55.847052", "X": "299450", "Street_Housenumber": "CUTHILL MWTS, ADDIEWELL FARM"}, {"City": "AYRSHIRE", "Functional_Location": "", "Description": " DALQUHARREN", "District": "GIRVAN", "Longitude": "-4.72967", "Y": "601363", "Postal_Code": "KA26 9SE", "Ownership": "STS TCA", "Latitude": "55.275841", "X": "226703", "Street_Housenumber": "FORMER DALQUHARREN COLLIERY, DAILLY"}, {"City": "SEAHAM", "Functional_Location": "", "Description": " DAWDON", "District": "COLD HESLEDON", "Longitude": "-1.3317945", "Y": "547255", "Postal_Code": "SR7 8SP", "Ownership": "STS TCA", "Latitude": "54.818306", "X": "443036", "Street_Housenumber": "DAWDON MINEWATER TREATMENT P.S., EAST HOUSE"}, {"City": "CO. DURHAM", "Functional_Location": "", "Description": " DAWDON", "District": "SEAHAM", "Longitude": "-1.3267768", "Y": "548344", "Postal_Code": "SR7 7PG", "Ownership": "STS TCA", "Latitude": "54.828064", "X": "443348", "Street_Housenumber": "DAWDON MINEWATER TREATMENT PLANT, FOX COVER IND ESTATE"}, {"City": "BACUP", "Functional_Location": "", "Description": " DEERPLAY", "District": "NEAR WEIR", "Longitude": "-2.2080212", "Y": "426535", "Postal_Code": "OL13 8RD", "Ownership": "STS TCA", "Latitude": "53.735023", "X": "386375", "Street_Housenumber": "FORMER DEERPLAY COLLIERY, LAND ADJ. A671"}, {"City": "WIGAN", "Functional_Location": "", "Description": " DOWN BROOK", "District": "LEYLAND GREEN", "Longitude": "-2.6807523", "Y": "400540", "Postal_Code": "WN4 0UU", "Ownership": "STS TCA", "Latitude": "53.499616", "X": "354940", "Street_Housenumber": "LAND TO REAR OF GLADDEN HEY BROW FARM, WINSTANLEY ROAD"}, {"City": "CO. DURHAM", "Functional_Location": "", "Description": " EDMONDSLEY", "District": "EDMONDSLEY", "Longitude": "-1.633729", "Y": "549067", "Postal_Code": "DH7 6DS", "Ownership": "STS TCA", "Latitude": "54.835875", "X": "423624", "Street_Housenumber": "WELLINGTON TERRACE, OFF TYZACK STREET"}, {"City": "", "Functional_Location": "", "Description": " ELLINGTON", "District": "", "Longitude": "149.124", "Y": "0", "Postal_Code": "XX1 1XX", "Ownership": "STS TCA", "Latitude": "-35.308", "X": "0", "Street_Housenumber": "TBC, "}, {"City": "CUMBRIA", "Functional_Location": "", "Description": " EWANRIGG", "District": "MARYPORT", "Longitude": "-3.4846034", "Y": "535300", "Postal_Code": "CA15 8SD", "Ownership": "STS TCA", "Latitude": "54.703615", "X": "304432", "Street_Housenumber": "LAND AT EWANRIGG HALL, ELLENBOROUGH"}, {"City": "DERBYSHIRE", "Functional_Location": "", "Description": " FENDER", "District": "CHESTERFIELD", "Longitude": "-1.4566288", "Y": "375208", "Postal_Code": "S41 9PZ", "Ownership": "STS TCA", "Latitude": "53.27262", "X": "436334", "Street_Housenumber": "SMECKLEY WOOD CLOSE, SHEEPBRIDGE TRADING ESTATE"}, {"City": "GREATER MANCHESTER", "Functional_Location": "", "Description": " FENNYFIELD", "District": "ASHTON-UNDER-LYNE", "Longitude": "-2.0923949", "Y": "402312", "Postal_Code": "OL6 8AQ", "Ownership": "STS TCA", "Latitude": "53.517447", "X": "393971", "Street_Housenumber": "NEAR PARK BRIDGE VISITORS CENTRE, PARK BRIDGE ROAD"}, {"City": "CUMBRIA", "Functional_Location": "", "Description": " FORCE CRAGG", "District": "KESWICK", "Longitude": "-3.1953828", "Y": "523548", "Postal_Code": "CA12 5TL", "Ownership": "STS TCA", "Latitude": "54.601194", "X": "322874", "Street_Housenumber": "OFF B5292 WHINLATTER PASS, BRAITHWAITE"}, {"City": "FIFE", "Functional_Location": "", "Description": " FRANCES", "District": "NEAR KIRKCALDY", "Longitude": "-3.120164", "Y": "693740", "Postal_Code": "KY1 2SL", "Ownership": "STS TCA", "Latitude": "56.131297", "X": "330473", "Street_Housenumber": "FORMER FRANCES COLLIERY, DYSART"}, {"City": "WEST GLAMORGAN", "Functional_Location": "", "Description": " GLYNCASTLE", "District": "NEATH", "Longitude": "-3.6908572", "Y": "202676", "Postal_Code": "SA11 4NN", "Ownership": "STS TCA", "Latitude": "51.710636", "X": "283272", "Street_Housenumber": "LAND TO NORTH EAST OF MAES-Y-TYRA, RESOLVEN"}, {"City": "WEST GLAMORGAN", "Functional_Location": "", "Description": " GLYNCORRWG", "District": "PORT TALBOT", "Longitude": "-3.6236323", "Y": "199271", "Postal_Code": "SA13 3AN", "Ownership": "STS TCA", "Latitude": "51.680967", "X": "287843", "Street_Housenumber": "LAND OFF NORTON TERRACE, GLYNCORRWG"}, {"City": "CUMBRIA", "Functional_Location": "", "Description": " GREAT CLIFTON", "District": "WORKINGTON", "Longitude": "-3.4879444", "Y": "529798", "Postal_Code": "CA14 1UH", "Ownership": "STS TCA", "Latitude": "54.654124", "X": "304100", "Street_Housenumber": "LAND TO WEST OF WILLIAM STREET, GREAT CLIFTON"}, {"City": "PORT TALBOT", "Functional_Location": "", "Description": " GWYNFI", "District": "BLAENGWYNFI", "Longitude": "-3.6067527", "Y": "196885", "Postal_Code": "SA13 3TY", "Ownership": "STS TCA", "Latitude": "51.659744", "X": "288958", "Street_Housenumber": "LAND AT BLAENGWYNFI, OFF GWYNFI STREET"}, {"City": "LANCASHIRE", "Functional_Location": "", "Description": " HOCKERY BROOK", "District": "WIGAN", "Longitude": "-2.5804548", "Y": "404638", "Postal_Code": "WN2 3AP", "Ownership": "STS TCA", "Latitude": "53.53698", "X": "361627", "Street_Housenumber": "LAND OFF DARBY LANE, HINDLEY"}, {"City": "CO. DURHAM", "Functional_Location": "", "Description": " HORDEN", "District": "NEAR PETERLEE", "Longitude": "-1.3173444", "Y": "541975", "Postal_Code": "SR8 4TQ", "Ownership": "STS TCA", "Latitude": "54.770776", "X": "444016", "Street_Housenumber": "LAND OFF KILBURN DRIVE, HORDEN IND. ESTATE"}, {"City": "CUMNOCK", "Functional_Location": "", "Description": " KAMES", "District": "MUIRKIRK", "Longitude": "-4.0794368", "Y": "626435", "Postal_Code": "KA18 3ND", "Ownership": "STS TCA", "Latitude": "55.513991", "X": "268792", "Street_Housenumber": "LAND ADJ. A70, NEAR KAMES FARM"}, {"City": "CUMBRIA", "Functional_Location": "", "Description": " LAMBLEY", "District": "BRAMPTON", "Longitude": "-2.511944", "Y": "558655", "Postal_Code": "CA8 7LQ", "Ownership": "STS TCA", "Latitude": "54.921509", "X": "367285", "Street_Housenumber": "LAND NORTH OF LAMBLEY FARM, LAMBLEY"}, {"City": "TYNE & WEAR", "Functional_Location": "", "Description": " LAMESLEY", "District": "GATESHEAD", "Longitude": "149.124", "Y": "0", "Postal_Code": "DH2 1BH", "Ownership": "STS TCA", "Latitude": "-35.308", "X": "0", "Street_Housenumber": "KIBBLESWORTH MINEWATER PUMPING STATION, KIBBLESWORTH"}, {"City": "FIFE", "Functional_Location": "", "Description": " LATHALLAN MILL", "District": "LEVEN", "Longitude": "-2.8498615", "Y": "704408", "Postal_Code": "KY9 1HN", "Ownership": "STS TCA", "Latitude": "56.229302", "X": "347408", "Street_Housenumber": "LAND AT BALCARRES ESTATE, COLINSBURGH"}, {"City": "", "Functional_Location": "", "Description": " LEVEN", "District": "", "Longitude": "149.124", "Y": "0", "Postal_Code": "XX1 1XX", "Ownership": "STS TCA", "Latitude": "-35.308", "X": "0", "Street_Housenumber": "TBC, "}, {"City": "DYFED", "Functional_Location": "", "Description": " LINDSAY", "District": "AMMANFORD", "Longitude": "-4.0458771", "Y": "210463", "Postal_Code": "SA18 3SH", "Ownership": "STS TCA", "Latitude": "51.775012", "X": "258946", "Street_Housenumber": "LAND OFF COOPERS ROAD NEAR BLAEN FERRWS, TYCROES"}, {"City": "STAFFORDSHIRE", "Functional_Location": "", "Description": " MID-CANNOCK", "District": "CANNOCK", "Longitude": "149.124", "Y": "0", "Postal_Code": "WS11 3EX", "Ownership": "STS TCA", "Latitude": "-35.308", "X": "0", "Street_Housenumber": "FORMER MID-CANNOCK COLLIERY, RUMER HILL ROAD"}, {"City": "FIFE", "Functional_Location": "", "Description": " MINTO", "District": "LOCHGELLY", "Longitude": "-3.2849348", "Y": "694830", "Postal_Code": "KY5 0AA", "Ownership": "STS TCA", "Latitude": "56.139486", "X": "320249", "Street_Housenumber": "LAND ADJ. B981, NEAR BRIGGHILLS FARM"}, {"City": "NEAR EDINBURGH", "Functional_Location": "", "Description": " MONKTONHALL", "District": "DALKEITH", "Longitude": "-3.0910374", "Y": "670142", "Postal_Code": "EH22 1SE", "Ownership": "STS TCA", "Latitude": "55.919523", "X": "331911", "Street_Housenumber": "FORMER MONKTONHALL COLLIERY, MILLERHILL"}, {"City": "DYFED", "Functional_Location": "", "Description": " MORLAIS", "District": "LLANELLI", "Longitude": "-4.0732293", "Y": "202528", "Postal_Code": "SA14 8YF", "Ownership": "STS TCA", "Latitude": "51.703177", "X": "256832", "Street_Housenumber": "LAND OFF PONTARDULAIS ROAD, LLANGENNECH"}, {"City": "ALFRETON", "Functional_Location": "", "Description": " MORTON", "District": "MORTON", "Longitude": "-1.3832902", "Y": "360136", "Postal_Code": "DE55 6HL", "Ownership": "STS TCA", "Latitude": "53.136781", "X": "441355", "Street_Housenumber": "FORMER MORTON COLLIERY, MAIN STREET"}, {"City": "AMMANFORD", "Functional_Location": "", "Description": " MOUNTAIN GATE", "District": "SARON", "Longitude": "-4.0256119", "Y": "211323", "Postal_Code": "SA18 3LB", "Ownership": "STS TCA", "Latitude": "51.783096", "X": "260369", "Street_Housenumber": "MOUNTAIN GATE MTW, OFF NANT Y CI ROAD"}, {"City": "LANARKSHIRE", "Functional_Location": "", "Description": " MOUSEWATER", "District": "LANARK", "Longitude": "-3.6818165", "Y": "653687", "Postal_Code": "ML11 8AL", "Ownership": "STS TCA", "Latitude": "55.765001", "X": "294574", "Street_Housenumber": "LAND TO SOUTH OF EAST FORTH ROAD, FORTH"}, {"City": "", "Functional_Location": "", "Description": " NENT HAGGS", "District": "", "Longitude": "149.124", "Y": "0", "Postal_Code": "XX1 1XX", "Ownership": "STS TCA", "Latitude": "-35.308", "X": "0", "Street_Housenumber": "TBC, "}, {"City": "OL13 8PX", "Functional_Location": "", "Description": " OLD MEADOWS", "District": "LANCASHIRE", "Longitude": "-2.1989171", "Y": "424190", "Postal_Code": "OL13 8PX", "Ownership": "STS TCA", "Latitude": "53.713962", "X": "386969", "Street_Housenumber": "BURNLEY ROAD, BACUP"}, {"City": "", "Functional_Location": "", "Description": " PELENNA", "District": "", "Longitude": "149.124", "Y": "0", "Postal_Code": "XX1 1XX", "Ownership": "STS TCA", "Latitude": "-35.308", "X": "0", "Street_Housenumber": "GARTH TONMAWR, "}, {"City": "LANCASHIRE", "Functional_Location": "", "Description": " PEMBERTON", "District": "WIGAN", "Longitude": "-2.6582621", "Y": "403896", "Postal_Code": "WN3 6PZ", "Ownership": "STS TCA", "Latitude": "53.529907", "X": "356463", "Street_Housenumber": "LAND TO SOUTH OF LITTLE LANE, GOOSE GREEN"}, {"City": "DUNFERMLINE", "Functional_Location": "", "Description": " PITFIRRANE", "District": "CROSSFORD", "Longitude": "-3.5000892", "Y": "685957", "Postal_Code": "KY12 8QW", "Ownership": "STS TCA", "Latitude": "56.057331", "X": "306681", "Street_Housenumber": "LAND TO SOUTH OF PITFIRRANE GOLF COURSE, OFF CAIRNEYHILL RD."}, {"City": "BATHGATE", "Functional_Location": "", "Description": " POLKEMMET", "District": "WHITBURN", "Longitude": "-3.6975547", "Y": "664208", "Postal_Code": "EH47 0LH", "Ownership": "STS TCA", "Latitude": "55.859331", "X": "293844", "Street_Housenumber": "FORMER POLKEMMET COLLIERY, OFF DIXON TERRACE"}, {"City": "LANARK", "Functional_Location": "", "Description": " POOL FARM", "District": "CARNWATH", "Longitude": "149.124", "Y": "0", "Postal_Code": "M11 8LW", "Ownership": "STS TCA", "Latitude": "-35.308", "X": "0", "Street_Housenumber": "LAND TO NORTH OF POOL, NEAR AUCHENGRAY"}, {"City": "TS12 2LN", "Functional_Location": "", "Description": " SALTBURN", "District": "NEW SKELTON", "Longitude": "-0.95928451", "Y": "519767", "Postal_Code": "TS12 2LN", "Ownership": "STS TCA", "Latitude": "54.568647", "X": "467384", "Street_Housenumber": "HAGG FARM, A174"}, {"City": "SOUTH YORKSHIRE", "Functional_Location": "", "Description": " SHEEPHOUSE WOOD", "District": "STOCKSBRIDGE", "Longitude": "-1.6450896", "Y": "399661", "Postal_Code": "S36 4GW", "Ownership": "STS TCA", "Latitude": "53.493129", "X": "423644", "Street_Housenumber": "LAND ADJACENT HANDBANK FARM, MIDHOPESTONES"}, {"City": "BARNSLEY", "Functional_Location": "", "Description": " SILKSTONE", "District": "SILKSTONE", "Longitude": "-1.5595675", "Y": "405834", "Postal_Code": "S75 4JU", "Ownership": "STS TCA", "Latitude": "53.54833", "X": "429280", "Street_Housenumber": "R/O POT HOUSE MILL NURSERY, BARNSLEY ROAD"}, {"City": "STAFFORDSHIRE", "Functional_Location": "", "Description": " SILVERDALE", "District": "NEWCASTLE U/LYME", "Longitude": "149.124", "Y": "0", "Postal_Code": "ST5 6AY", "Ownership": "STS TCA", "Latitude": "-35.308", "X": "0", "Street_Housenumber": "FORMER SILVERDALE COLLIERY, OFF SCOT HAY ROAD"}, {"City": "NP13 2PA", "Functional_Location": "", "Description": " SIX BELLS", "District": "ABERTILLERY", "Longitude": "-3.1275127", "Y": "203727", "Postal_Code": "NP13 2PA", "Ownership": "STS TCA", "Latitude": "51.726844", "X": "322221", "Street_Housenumber": "SIX BELLS MWTS, ABERBEEG ROAD"}, {"City": "DH8 7SS", "Functional_Location": "", "Description": " STONEY HEAP", "District": "CO. DURHAM", "Longitude": "-1.7750554", "Y": "551356", "Postal_Code": "DH8 7SS", "Ownership": "STS TCA", "Latitude": "54.856789", "X": "414539", "Street_Housenumber": "STONYHEAP LANE, LANCHESTER"}, {"City": "", "Functional_Location": "", "Description": " STRAFFORD", "District": "", "Longitude": "-1.5151402", "Y": "404042", "Postal_Code": "S75 3EJ", "Ownership": "STS TCA", "Latitude": "53.532051", "X": "432236", "Street_Housenumber": "STRAFFORD INDUSTRIAL ESTATE. GILROYD LANE. DODWORTH. BARNSLEY. SOUTH YORKSHIRE"}, {"City": "WN3 6BQ", "Functional_Location": "", "Description": " SUMMERSALES", "District": "WIGAN", "Longitude": "-2.6879692", "Y": "403933", "Postal_Code": "WN3 6BQ", "Ownership": "STS TCA", "Latitude": "53.530073", "X": "354494", "Street_Housenumber": "LAND NEAR TUESON VILLAS, HALL LANE"}, {"City": "MERTHYR TYDFIL", "Functional_Location": "", "Description": " TAFF MERTHYR", "District": "NELSON", "Longitude": "-3.2973191", "Y": "199132", "Postal_Code": "CF46 6RD", "Ownership": "STS TCA", "Latitude": "51.683775", "X": "310408", "Street_Housenumber": "FORMER TAFF MERTHYR COLLIERY, BEDLINOG"}, {"City": "AMMANFORD", "Functional_Location": "", "Description": " TAN-Y-GARN", "District": "GARNSWLLT", "Longitude": "-3.9910832", "Y": "209735", "Postal_Code": "SA18 2RN", "Ownership": "STS TCA", "Latitude": "51.769407", "X": "262709", "Street_Housenumber": "NEAR TY'N-Y-CWM HOUSE, HEOL-Y-GARN ROAD"}, {"City": "", "Functional_Location": "", "Description": " WHITBURN", "District": "", "Longitude": "149.124", "Y": "0", "Postal_Code": "XX1 1XX", "Ownership": "STS TCA", "Latitude": "-35.308", "X": "0", "Street_Housenumber": ", "}, {"City": "NE66 2YJ.", "Functional_Location": "", "Description": " WHITTLE", "District": "NORTHUMBERLAND", "Longitude": "-1.6781637", "Y": "608340", "Postal_Code": "NE66 2YJ", "Ownership": "STS TCA", "Latitude": "55.368631", "X": "420497", "Street_Housenumber": "LAND EAST OF A1, NEWTON-ON-THE-MOOR"}, {"City": "HEANOR", "Functional_Location": "", "Description": " WOODSIDE", "District": "SHIPLEY", "Longitude": "-1.3313169", "Y": "344721", "Postal_Code": "DE75 7JL", "Ownership": "STS TCA", "Latitude": "52.997932", "X": "444976", "Street_Housenumber": "WOODSIDE COLLIERY, PIT LANE"}, {"City": "BARNSLEY", "Functional_Location": "", "Description": " WOOLLEY", "District": "DARTON", "Longitude": "-1.5288758", "Y": "411228", "Postal_Code": "S75 5JE", "Ownership": "STS TCA", "Latitude": "53.596696", "X": "431278", "Street_Housenumber": "FORMER WOOLLEY COLLIERY, WOOLLEY COLLIERY RD."}, {"City": "RESOLVEN", "Functional_Location": "", "Description": " YNYSARWED", "District": "NEATH ROAD", "Longitude": "-3.7290588", "Y": "201482", "Postal_Code": "SA11 4DF", "Ownership": "STS TCA", "Latitude": "51.699343", "X": "280603", "Street_Housenumber": "MINEWATER TREATMENT WORKS, YNYSARWED"}, {"City": "NORTHUMBERLAND", "Functional_Location": "", "Description": "ALBERMARLE BARRACKS", "District": "NEWCASTLE", "Longitude": "-1.6008939", "Y": "565936", "Postal_Code": "NE2 1LE", "Ownership": "STS MOD", "Latitude": "54.987363", "X": "425637", "Street_Housenumber": "HARLOW HILL"}, {"City": "HAMPSHIRE", "Functional_Location": "", "Description": "ALDERSHOT MILITARY TOWN", "District": "ALDERSHOT", "Longitude": "-0.74204617", "Y": "152391", "Postal_Code": "GU11 2NS", "Ownership": "STS MOD", "Latitude": "51.263914", "X": "487866", "Street_Housenumber": ""}, {"City": "MERSEYSIDE", "Functional_Location": "", "Description": "ALTCAR TRAINING CAMP AND RANGES", "District": "LIVERPOOL", "Longitude": "-3.0638219", "Y": "404740", "Postal_Code": "L38 7JE", "Ownership": "STS MOD", "Latitude": "53.534572", "X": "329588", "Street_Housenumber": "HIGHTOWN"}, {"City": "BERKSHIRE", "Functional_Location": "", "Description": "ARBORFIELD GARRISON", "District": "READING", "Longitude": "-0.89827584", "Y": "166134", "Postal_Code": "RG2 9NH", "Ownership": "STS MOD", "Latitude": "51.389067", "X": "476757", "Street_Housenumber": ""}, {"City": "BERKSHIRE", "Functional_Location": "", "Description": "BAIRD RD EST ARBORFIELD BERKS", "District": "ARBORFIELD", "Longitude": "-0.96933068", "Y": "172390", "Postal_Code": "RG2", "Ownership": "STS MOD", "Latitude": "51.445967", "X": "471724", "Street_Housenumber": "BAIRD ROAD EAST"}, {"City": "WEST SUSSEX", "Functional_Location": "", "Description": "BAKER BARRACKS", "District": "THORNEY ISLAND", "Longitude": "-0.92815172", "Y": "102922", "Postal_Code": "PO10 8DH", "Ownership": "STS MOD", "Latitude": "50.820916", "X": "475598", "Street_Housenumber": "EMSWORTH ROAD"}, {"City": "YORKSHIRE", "Functional_Location": "", "Description": "BARRACKS AT RIPON AND TRAINING AREA", "District": "RIPON", "Longitude": "-1.5417976", "Y": "471761", "Postal_Code": "HG4 2HW", "Ownership": "STS MOD", "Latitude": "54.140813", "X": "430032", "Street_Housenumber": "CLOTHERHOLME"}, {"City": "YORKSHIRE", "Functional_Location": "", "Description": "BARRACKS AT STRENSALL", "District": "STRENSALL", "Longitude": "-1.0412223", "Y": "459306", "Postal_Code": "YO32 5SW", "Ownership": "STS MOD", "Latitude": "54.025924", "X": "462907", "Street_Housenumber": ""}, {"City": "BERKSHIRE", "Functional_Location": "", "Description": "BARRACKS AT WINDSOR", "District": "WINDSOR", "Longitude": "-0.61631234", "Y": "175782", "Postal_Code": "SL4 3DN", "Ownership": "STS MOD", "Latitude": "51.472834", "X": "496200", "Street_Housenumber": "ST. LEONARDS ROAD"}, {"City": "HERTFORDSHIRE", "Functional_Location": "", "Description": "BASSINGBOURNE BARRACKS", "District": "ROYSTON", "Longitude": "-0.044104243", "Y": "245148", "Postal_Code": "SG8 5LL", "Ownership": "STS MOD", "Latitude": "52.088442", "X": "534103", "Street_Housenumber": "BASSINGBOURN"}, {"City": "BUCKINGHAMSHIRE", "Functional_Location": "", "Description": "BEACONSFIELD SCHOOL", "District": "BEACONSFIELD", "Longitude": "-0.61662294", "Y": "190403", "Postal_Code": "HP9 2RP", "Ownership": "STS MOD", "Latitude": "51.604309", "X": "495902", "Street_Housenumber": "WILTON PARK"}, {"City": "LINCOLNSHIRE", "Functional_Location": "", "Description": "BECKINGHAM TRAINING CAMP", "District": "BECKINGHAM", "Longitude": "-0.6815836", "Y": "353992", "Postal_Code": "LN5 0RL", "Ownership": "STS MOD", "Latitude": "53.075848", "X": "488422", "Street_Housenumber": "WOODGATE LANE"}, {"City": "ESSEX", "Functional_Location": "", "Description": "CARVER BARRACKS", "District": "SAFFRON  WALDEN", "Longitude": "0.28416427", "Y": "234587", "Postal_Code": "CB10 2YA", "Ownership": "STS MOD", "Latitude": "51.987568", "X": "556944", "Street_Housenumber": "WIMBISH"}, {"City": "YORKSHIRE", "Functional_Location": "", "Description": "CATTERICK GARRISON", "District": "CATTERICK", "Longitude": "-1.7165015", "Y": "496541", "Postal_Code": "DL9 3JS", "Ownership": "STS MOD", "Latitude": "54.364056", "X": "418519", "Street_Housenumber": "PIAVE ROAD"}, {"City": "YORKSHIRE", "Functional_Location": "", "Description": "CATTERICK RURAL", "District": "CATTERICK", "Longitude": "-1.8271987", "Y": "496154", "Postal_Code": "DL11 6AH", "Ownership": "STS MOD", "Latitude": "54.360787", "X": "411327", "Street_Housenumber": "A RANGE/DRY TRAINING"}, {"City": "GREATER LONDON", "Functional_Location": "", "Description": "CAVALRY BARRACKS", "District": "HOUNSLOW", "Longitude": "-0.39934057", "Y": "175808", "Postal_Code": "TW4 6HF", "Ownership": "STS MOD", "Latitude": "51.470307", "X": "511275", "Street_Housenumber": "BEAVERS LANE"}, {"City": "NOTTINGHAMSHIRE", "Functional_Location": "", "Description": "CHETWYND BARRACKS", "District": "NOTTINGHAM", "Longitude": "-1.2435295", "Y": "335266", "Postal_Code": "NG9 5HA", "Ownership": "STS MOD", "Latitude": "52.912411", "X": "450968", "Street_Housenumber": "BEESTON"}, {"City": "ESSEX", "Functional_Location": "", "Description": "COLCHESTER PFI", "District": "COLCHESTER", "Longitude": "0.90665432", "Y": "222070", "Postal_Code": "CO2 8RD", "Ownership": "STS MOD", "Latitude": "51.86127", "X": "600242", "Street_Housenumber": "COLCHESTER PFI"}, {"City": "KENT", "Functional_Location": "", "Description": "CONNAUGHT BARRACKS", "District": "DOVER", "Longitude": "149.124", "Y": "0", "Postal_Code": "CT16 1HL", "Ownership": "STS MOD", "Latitude": "-35.308", "X": "0", "Street_Housenumber": "GUSTON ROAD"}, {"City": "RUTLAND", "Functional_Location": "", "Description": "COTTESMORE", "District": "COTTESMORE", "Longitude": "-0.65020529", "Y": "315128", "Postal_Code": "LE15 7BL", "Ownership": "STS MOD", "Latitude": "52.72611", "X": "491255", "Street_Housenumber": "COTTESMORE ROAD"}, {"City": "LINCOLNSHIRE", "Functional_Location": "", "Description": "CRANWELL", "District": "SLEAFORD", "Longitude": "-0.50642337", "Y": "349558", "Postal_Code": "NG34 8HB", "Ownership": "STS MOD", "Latitude": "53.033918", "X": "500253", "Street_Housenumber": "CRANWELL"}, {"City": "LEICESTERSHIRE", "Functional_Location": "", "Description": "DAC (SOUTH)", "District": "MELTON MOWBRAY", "Longitude": "-0.90548757", "Y": "319389", "Postal_Code": "LE13 0HX", "Ownership": "STS MOD", "Latitude": "52.767046", "X": "473946", "Street_Housenumber": "ASFORDBY ROAD"}, {"City": "LEICESTERSHIRE", "Functional_Location": "", "Description": "DAC (SOUTH)", "District": "MELTON MOWBRAY", "Longitude": "-0.98505099", "Y": "324192", "Postal_Code": "LE14 3NJ", "Ownership": "STS MOD", "Latitude": "52.810932", "X": "468509", "Street_Housenumber": "OLD DALBY LANE"}, {"City": "SURREY", "Functional_Location": "", "Description": "DEEPCUT", "District": "DEEPCUT", "Longitude": "-0.69809618", "Y": "157033", "Postal_Code": "GU16 6RW", "Ownership": "STS MOD", "Latitude": "51.305176", "X": "490851", "Street_Housenumber": ""}, {"City": "BEDFORDSHIRE", "Functional_Location": "", "Description": "DISC CHICKSANDS", "District": "SHEFFORD", "Longitude": "-0.36314756", "Y": "239756", "Postal_Code": "SG17 5PR", "Ownership": "STS MOD", "Latitude": "52.044822", "X": "512355", "Street_Housenumber": "CHICKSANDS"}, {"City": "YORKSHIRE", "Functional_Location": "", "Description": "DISHFORTH BARRACKS", "District": "DISHFORTH", "Longitude": "-1.4095393", "Y": "471146", "Postal_Code": "YO7 3EZ", "Ownership": "STS MOD", "Latitude": "54.13471", "X": "438678", "Street_Housenumber": ""}, {"City": "CUMBRIA", "Functional_Location": "", "Description": "DM LONGTOWN", "District": "LONGTOWN", "Longitude": "-2.9706575", "Y": "568731", "Postal_Code": "CA6 5LX", "Ownership": "STS MOD", "Latitude": "55.009259", "X": "338020", "Street_Housenumber": "GREENMILLS ROAD"}, {"City": "SURREY", "Functional_Location": "", "Description": "DSMRC HEADLEY COURT", "District": "EPSOM", "Longitude": "149.124", "Y": "0", "Postal_Code": "KT18 6JN", "Ownership": "STS MOD", "Latitude": "-35.308", "X": "0", "Street_Housenumber": "HEADLEY ROAD"}, {"City": "KENT", "Functional_Location": "", "Description": "DUKE OF YORK'S ROYAL MILITARY SCHOOL", "District": "DOVER", "Longitude": "1.325844", "Y": "143466", "Postal_Code": "CT15 5EQ", "Ownership": "STS MOD", "Latitude": "51.143124", "X": "632730", "Street_Housenumber": "GUSTON ROAD"}, {"City": "MIDDLESEX", "Functional_Location": "", "Description": "FELTHAM GARRISON ATC/MILITARY SURVEY", "District": "FELTHAM", "Longitude": "149.124", "Y": "0", "Postal_Code": "TW13  7A", "Ownership": "STS MOD", "Latitude": "-35.308", "X": "0", "Street_Housenumber": ""}, {"City": "LANCASHIRE", "Functional_Location": "", "Description": "FULWOOD BARRACKS", "District": "PRESTON", "Longitude": "-2.6858905", "Y": "431529", "Postal_Code": "PR2 8AA", "Ownership": "STS MOD", "Latitude": "53.778127", "X": "354898", "Street_Housenumber": "FULWOOD BARRACKS"}, {"City": "BUCKINGHAMSHIRE", "Functional_Location": "", "Description": "GREENWOOD &SPRINGFIELD'S HIGH WYCOMBE", "District": "WALTERS ASH", "Longitude": "-0.79383498", "Y": "198769", "Postal_Code": "HP14 4XD", "Ownership": "STS MOD", "Latitude": "51.681488", "X": "483488", "Street_Housenumber": "GREENWOOD"}, {"City": "MIDDLESEX", "Functional_Location": "", "Description": "HMS WARRIOR", "District": "NORTHWOOD", "Longitude": "-0.40954072", "Y": "192378", "Postal_Code": "HA6 3HP", "Ownership": "STS MOD", "Latitude": "51.619446", "X": "510206", "Street_Housenumber": "SANDY LANE"}, {"City": "SURREY", "Functional_Location": "", "Description": "HOBBS CL & BROADOAKS EST WEST BYFLEET SURREY", "District": "WEST BYFLEET", "Longitude": "-0.49986624", "Y": "160906", "Postal_Code": "KT14 6LT", "Ownership": "STS MOD", "Latitude": "51.337633", "X": "504595", "Street_Housenumber": "HOBBS CLOSE"}, {"City": "SUFFOLK", "Functional_Location": "", "Description": "HONINGTON", "District": "BURY ST. EDMONDS", "Longitude": "0.77631225", "Y": "274428", "Postal_Code": "IP31 1EE", "Ownership": "STS MOD", "Latitude": "52.335282", "X": "589252", "Street_Housenumber": "HONINGTON"}, {"City": "KENT", "Functional_Location": "", "Description": "HOWE BARRACKS", "District": "CANTERBURY", "Longitude": "1.1010383", "Y": "157956", "Postal_Code": "CT1 1JU", "Ownership": "STS MOD", "Latitude": "51.27964", "X": "616368", "Street_Housenumber": "ST MARTINS HILL"}, {"City": "GREATER LONDON", "Functional_Location": "", "Description": "HYDE PARK BARRACKS", "District": "LONDON", "Longitude": "-0.16326448", "Y": "179747", "Postal_Code": "SW7 1SE", "Ownership": "STS MOD", "Latitude": "51.502268", "X": "527582", "Street_Housenumber": "KNIGHTSBRIDGE"}, {"City": "YORKSHIRE", "Functional_Location": "", "Description": "IMPHAL BARRACKS", "District": "YORK", "Longitude": "-1.0809811", "Y": "451446", "Postal_Code": "YO1 9SA", "Ownership": "STS MOD", "Latitude": "53.955589", "X": "460404", "Street_Housenumber": "TOWER STREET"}, {"City": "KENT", "Functional_Location": "", "Description": "INVICTA PARK BARRACKS", "District": "MAIDSTONE", "Longitude": "0.51927836", "Y": "157377", "Postal_Code": "ME14 2NA", "Ownership": "STS MOD", "Latitude": "51.288403", "X": "575768", "Street_Housenumber": "CHATHAM ROAD"}, {"City": "GREATER LONDON", "Functional_Location": "", "Description": "KNELLER HALL", "District": "TWICKENHAM", "Longitude": "-0.35079158", "Y": "174191", "Postal_Code": "TW2 7DU", "Ownership": "STS MOD", "Latitude": "51.455093", "X": "514685", "Street_Housenumber": "KNELLER ROAD"}, {"City": "KENT", "Functional_Location": "", "Description": "LYDD CAMP AND RANGES", "District": "ASHFORD", "Longitude": "0.8987683", "Y": "120259", "Postal_Code": "TN29 9JR", "Ownership": "STS MOD", "Latitude": "50.945761", "X": "603727", "Street_Housenumber": "LYDD"}, {"City": "NORFOLK", "Functional_Location": "", "Description": "MARHAM", "District": "KINGS LYNN", "Longitude": "0.54697154", "Y": "309629", "Postal_Code": "PE33 9NP", "Ownership": "STS MOD", "Latitude": "52.656987", "X": "572367", "Street_Housenumber": "MARHAM"}, {"City": "YORKSHIRE", "Functional_Location": "", "Description": "MARNE BARRACKS", "District": "CATTERICK", "Longitude": "-1.6316298", "Y": "497674", "Postal_Code": "DL10 7N", "Ownership": "STS MOD", "Latitude": "54.37401", "X": "424028", "Street_Housenumber": "LEEMING LANE"}, {"City": "KENT", "Functional_Location": "", "Description": "MOD FSCTE MANSTON", "District": "RAMSGATE", "Longitude": "1.3483951", "Y": "166684", "Postal_Code": "CT12 5BS", "Ownership": "STS MOD", "Latitude": "51.35133", "X": "633251", "Street_Housenumber": "MANSTON"}, {"City": "ESSEX", "Functional_Location": "", "Description": "MOD SHOEBURYNESS", "District": "SOUTHEND ON SEA", "Longitude": "0.82563254", "Y": "187620", "Postal_Code": "SS3 9XJ", "Ownership": "STS MOD", "Latitude": "51.553413", "X": "595990", "Street_Housenumber": "FOULNESS ISLAND"}, {"City": "YORKSHIRE", "Functional_Location": "", "Description": "MQ BRAY RD", "District": "FULFORD", "Longitude": "-1.0617682", "Y": "449855", "Postal_Code": "YO10 4JH", "Ownership": "STS MOD", "Latitude": "53.94114", "X": "461686", "Street_Housenumber": "BRAY ROAD"}, {"City": "BERKSHIRE", "Functional_Location": "", "Description": "MQ BROOM FARM EST WINDSOR", "District": "WINDSOR", "Longitude": "-0.65800068", "Y": "176147", "Postal_Code": "SL4 4XW", "Ownership": "STS MOD", "Latitude": "51.4766", "X": "493297", "Street_Housenumber": ""}, {"City": "GREATER LONDON", "Functional_Location": "", "Description": "MQ CALIFORNIA EST", "District": "BUSHEY HEATH", "Longitude": "149.124", "Y": "0", "Postal_Code": "HA7 3HH", "Ownership": "STS MOD", "Latitude": "-35.308", "X": "0", "Street_Housenumber": "CALIFORNIA ESTATE"}, {"City": "GREATER LONDON", "Functional_Location": "", "Description": "MQ LYSANDER ROAD RUISLIP", "District": "RUISLIP", "Longitude": "-0.16081884", "Y": "193777", "Postal_Code": "N20", "Ownership": "STS MOD", "Latitude": "51.628393", "X": "527399", "Street_Housenumber": "WHETSTONE ESTATE"}, {"City": "BUCKINGHAMSHIRE", "Functional_Location": "", "Description": "MQ MEDMENHAM BUCKS", "District": "MEDMENHAM", "Longitude": "-0.81685501", "Y": "184935", "Postal_Code": "SL7 2EB", "Ownership": "STS MOD", "Latitude": "51.557331", "X": "482120", "Street_Housenumber": ""}, {"City": "GREATER LONDON", "Functional_Location": "", "Description": "MQ QUEEN MARY'S BLDGS", "District": "WESTMINSTER", "Longitude": "-0.13844275", "Y": "178914", "Postal_Code": "SW1P 1EB", "Ownership": "STS MOD", "Latitude": "51.494386", "X": "529327", "Street_Housenumber": ""}, {"City": "GREATER LONDON", "Functional_Location": "", "Description": "MQ RAF BIGGIN HILL", "District": "BIGGIN HILL", "Longitude": "0.022150092", "Y": "160998", "Postal_Code": "TN16 3ER", "Ownership": "STS MOD", "Latitude": "51.33061", "X": "540977", "Street_Housenumber": ""}, {"City": "GREATER LONDON", "Functional_Location": "", "Description": "MQ STANMORE PK GT LONDON", "District": "STANMORE", "Longitude": "149.124", "Y": "0", "Postal_Code": "HA7 3SP", "Ownership": "STS MOD", "Latitude": "-35.308", "X": "0", "Street_Housenumber": "STANMORE PK"}, {"City": "GREATER LONDON", "Functional_Location": "", "Description": "MQ THE KEEP KINGSTON UPON THAMES", "District": "KINGSTON UPON THAMES", "Longitude": "-0.2956371", "Y": "170407", "Postal_Code": "KT2 5UA", "Ownership": "STS MOD", "Latitude": "51.420277", "X": "518607", "Street_Housenumber": "THE KEEP"}, {"City": "GREATER LONDON", "Functional_Location": "", "Description": "MQ WHETSTONE EST", "District": "WHETSTONE", "Longitude": "-0.16081884", "Y": "193777", "Postal_Code": "N20", "Ownership": "STS MOD", "Latitude": "51.628393", "X": "527399", "Street_Housenumber": "WHETSTONE ESTATE"}, {"City": "ESSEX", "Functional_Location": "", "Description": "MQ'S COLCHESTER GARRISON", "District": "COLCHESTER", "Longitude": "149.124", "Y": "0", "Postal_Code": "CO2 7E2", "Ownership": "STS MOD", "Latitude": "-35.308", "X": "0", "Street_Housenumber": "PITFIELD ESTATE"}, {"City": "HUMBERSIDE", "Functional_Location": "", "Description": "NORMANDY BARRACKS AND TRAINING CAMP, EAST YORKSHIRE", "District": "LECONFIELD", "Longitude": "-0.44896083", "Y": "443573", "Postal_Code": "HU17 7LX", "Ownership": "STS MOD", "Latitude": "53.878323", "X": "502063", "Street_Housenumber": ""}, {"City": "GREATER LONDON", "Functional_Location": "", "Description": "NORTHOLT", "District": "RUISLIP", "Longitude": "-0.40941856", "Y": "185550", "Postal_Code": "HA4 6NG", "Ownership": "STS MOD", "Latitude": "51.558046", "X": "510363", "Street_Housenumber": "WEST END ROAD"}, {"City": "NORTHUMBERLAND", "Functional_Location": "", "Description": "OTTERBURN CAMP AND TRAINING AREA", "District": "OTTERBURN", "Longitude": "-2.1782626", "Y": "594851", "Postal_Code": "NE19 1NX", "Ownership": "STS MOD", "Latitude": "55.247715", "X": "388765", "Street_Housenumber": ""}, {"City": "ESSEX", "Functional_Location": "", "Description": "POLICE HEADQUARTERS & TRAINING CENTRE", "District": "WETHERSFIELD", "Longitude": "0.48974836", "Y": "232593", "Postal_Code": "CM7 4AZ", "Ownership": "STS MOD", "Latitude": "51.965469", "X": "571143", "Street_Housenumber": ""}, {"City": "LINCOLNSHIRE", "Functional_Location": "", "Description": "PRINCE WILLIAM OF GLOUCESTER BARRACKS", "District": "GRANTHAM", "Longitude": "-0.61056622", "Y": "334893", "Postal_Code": "NG31 7TJ", "Ownership": "STS MOD", "Latitude": "52.903342", "X": "493551", "Street_Housenumber": "SOMERBY HILL"}, {"City": "NORFOLK", "Functional_Location": "", "Description": "RAF BARNHAM", "District": "THETFORD", "Longitude": "149.124", "Y": "0", "Postal_Code": "IP31 11E", "Ownership": "STS MOD", "Latitude": "-35.308", "X": "0", "Street_Housenumber": "BARNHAM"}, {"City": "NORTHUMBERLAND", "Functional_Location": "", "Description": "RAF BOULMER", "District": "LONGHOUGHTON", "Longitude": "-1.6008912", "Y": "614422", "Postal_Code": "NE66 3JF", "Ownership": "STS MOD", "Latitude": "55.423054", "X": "425360", "Street_Housenumber": ""}, {"City": "CAMBRIDGESHIRE", "Functional_Location": "", "Description": "RAF BRAMPTON", "District": "HUNTINGDON", "Longitude": "-0.11608659", "Y": "273820", "Postal_Code": "PE28 2EA", "Ownership": "STS MOD", "Latitude": "52.347421", "X": "528423", "Street_Housenumber": ""}, {"City": "LINCOLNSHIRE", "Functional_Location": "", "Description": "RAF CONINGSBY", "District": "CONINGSBY", "Longitude": "-0.17441022", "Y": "357851", "Postal_Code": "LN4 4 SJ", "Ownership": "STS MOD", "Latitude": "53.103842", "X": "522317", "Street_Housenumber": "OVERTON ROAD"}, {"City": "LINCOLNSHIRE", "Functional_Location": "", "Description": "RAF CONINGSBY EST", "District": "LINDSEY", "Longitude": "-0.17784116", "Y": "357229", "Postal_Code": "LN4 4SY", "Ownership": "STS MOD", "Latitude": "53.098303", "X": "522103", "Street_Housenumber": ""}, {"City": "LINCOLNSHIRE", "Functional_Location": "", "Description": "RAF CONINGSBY MQ'S CASTLE FIELDS", "District": "TATTERSHALL", "Longitude": "-0.20077991", "Y": "357558", "Postal_Code": "LN4 4LY", "Ownership": "STS MOD", "Latitude": "53.101609", "X": "520558", "Street_Housenumber": "CASTLE FIELDS"}, {"City": "LINCOLNSHIRE", "Functional_Location": "", "Description": "RAF DIGBY", "District": "DIGBY", "Longitude": "-0.43625663", "Y": "356575", "Postal_Code": "LN4 3LH", "Ownership": "STS MOD", "Latitude": "53.096099", "X": "504807", "Street_Housenumber": ""}, {"City": "YORKSHIRE", "Functional_Location": "", "Description": "RAF FYLINGDALES", "District": "PICKERING", "Longitude": "-0.67001053", "Y": "496770", "Postal_Code": "YO18 7NT", "Ownership": "STS MOD", "Latitude": "54.359123", "X": "486526", "Street_Housenumber": ""}, {"City": "BUCKINGHAMSHIRE", "Functional_Location": "", "Description": "RAF HALTON", "District": "AYLESBURY", "Longitude": "-0.72789176", "Y": "209230", "Postal_Code": "HP22 5PG", "Ownership": "STS MOD", "Latitude": "51.774854", "X": "487866", "Street_Housenumber": "HALTON"}, {"City": "BEDFORDSHIRE", "Functional_Location": "", "Description": "RAF HENLOW", "District": "HENLOW", "Longitude": "-0.30264227", "Y": "235838", "Postal_Code": "SG16 6DN", "Ownership": "STS MOD", "Latitude": "52.008737", "X": "516598", "Street_Housenumber": ""}, {"City": "BUCKINGHAMSHIRE", "Functional_Location": "", "Description": "RAF HIGH WYCOMBE", "District": "HIGH WYCOMBE", "Longitude": "149.124", "Y": "0", "Postal_Code": "HP11 1PZ", "Ownership": "STS MOD", "Latitude": "-35.308", "X": "0", "Street_Housenumber": "WALTERS ASH"}, {"City": "YORKSHIRE", "Functional_Location": "", "Description": "RAF LEEMING", "District": "NORTHALLERTON", "Longitude": "-1.5233494", "Y": "488553", "Postal_Code": "DL7 9NJ", "Ownership": "STS MOD", "Latitude": "54.291658", "X": "431124", "Street_Housenumber": ""}, {"City": "YORKSHIRE", "Functional_Location": "", "Description": "RAF LINTON ON OUSE", "District": "LINTON ON OUSE", "Longitude": "-1.2454306", "Y": "461080", "Postal_Code": "YO30 2AJ", "Ownership": "STS MOD", "Latitude": "54.043323", "X": "449509", "Street_Housenumber": ""}, {"City": "LINCOLNSHIRE", "Functional_Location": "", "Description": "RAF SCAMPTON", "District": "LINCOLN", "Longitude": "-0.55193407", "Y": "378975", "Postal_Code": "LN1 2TR", "Ownership": "STS MOD", "Latitude": "53.298931", "X": "496605", "Street_Housenumber": "SCAMPTON"}, {"City": "GREATER LONDON", "Functional_Location": "", "Description": "RAF UXBRIDGE", "District": "UXBRIDGE", "Longitude": "149.124", "Y": "0", "Postal_Code": "UB10 0RZ", "Ownership": "STS MOD", "Latitude": "-35.308", "X": "0", "Street_Housenumber": "DOWDING ROAD"}, {"City": "CAMBRIDGESHIRE", "Functional_Location": "", "Description": "RAF WITTERING", "District": "PETERBOROUGH", "Longitude": "-0.44689018", "Y": "303110", "Postal_Code": "PE8 6HB", "Ownership": "STS MOD", "Latitude": "52.615573", "X": "505250", "Street_Housenumber": "WITTERING"}, {"City": "CAMBRIDGESHIRE", "Functional_Location": "", "Description": "RAF WYTON", "District": "HUNTINGDON", "Longitude": "-0.11608659", "Y": "273820", "Postal_Code": "PE28 2EA", "Ownership": "STS MOD", "Latitude": "52.347421", "X": "528423", "Street_Housenumber": ""}, {"City": "LINCOLNSHIRE", "Functional_Location": "", "Description": "RAPIER BARRACKS", "District": "GAINSBOROUGH", "Longitude": "-0.57856365", "Y": "397789", "Postal_Code": "DN21 4HZ", "Ownership": "STS MOD", "Latitude": "53.468377", "X": "494455", "Street_Housenumber": "KIRTON IN LINDSEY"}, {"City": "GREATER LONDON", "Functional_Location": "", "Description": "REGENTS PARK BARRACKS", "District": "CAMDEN", "Longitude": "-0.14551705", "Y": "183161", "Postal_Code": "NW1 4AL", "Ownership": "STS MOD", "Latitude": "51.532689", "X": "528728", "Street_Housenumber": "ALBANY STREET"}, {"City": "SURREY", "Functional_Location": "", "Description": "RMA SANDHURST", "District": "CAMBERLEY", "Longitude": "-0.7616643", "Y": "161276", "Postal_Code": "GU15 4PQ", "Ownership": "STS MOD", "Latitude": "51.34402", "X": "486347", "Street_Housenumber": "SANDHURST"}, {"City": "NORFOLK", "Functional_Location": "", "Description": "ROBERTSON BARRACKS", "District": "SWANTON MORLEY", "Longitude": "0.97470724", "Y": "318395", "Postal_Code": "NR20 4TX", "Ownership": "STS MOD", "Latitude": "52.725847", "X": "600975", "Street_Housenumber": ""}, {"City": "WEST SUSSEX", "Functional_Location": "", "Description": "ROUSILLON BARRACKS", "District": "CHICHESTER", "Longitude": "-0.78000699", "Y": "106422", "Postal_Code": "PO19 6BL", "Ownership": "STS MOD", "Latitude": "50.850937", "X": "485978", "Street_Housenumber": "BROYLE ROAD"}, {"City": "KENT", "Functional_Location": "", "Description": "RSME CHATHAM (BROMPTON BKS)", "District": "CHATHAM", "Longitude": "0.53337207", "Y": "168979", "Postal_Code": "ME4 4UG", "Ownership": "STS MOD", "Latitude": "51.392443", "X": "576351", "Street_Housenumber": "DOCK ROAD"}, {"City": "KENT", "Functional_Location": "", "Description": "SHORNCLIFFE GARRISON", "District": "FOLKESTONE", "Longitude": "1.1410184", "Y": "135166", "Postal_Code": "CT20 3HU", "Ownership": "STS MOD", "Latitude": "51.07358", "X": "620135", "Street_Housenumber": "SHORNCLIFFE"}, {"City": "", "Functional_Location": "", "Description": "SPADEADAM", "District": "", "Longitude": "149.124", "Y": "0", "Postal_Code": "XX1 1XX", "Ownership": "STS MOD", "Latitude": "-35.308", "X": "0", "Street_Housenumber": "RAF SPADEADAM"}, {"City": "LEICESTERSHIRE", "Functional_Location": "", "Description": "ST GEORGES BARRACKS NORTH LUFFENHAM", "District": "NORTH LUFFENHAM", "Longitude": "-0.61843961", "Y": "305061", "Postal_Code": "LE15 8RL", "Ownership": "STS MOD", "Latitude": "52.635238", "X": "493594", "Street_Housenumber": ""}, {"City": "KENT", "Functional_Location": "", "Description": "ST MARTIN'S PLAIN CAMP", "District": "FOLKESTONE", "Longitude": "1.1207603", "Y": "136618", "Postal_Code": "CT20 3JG", "Ownership": "STS MOD", "Latitude": "51.087184", "X": "618652", "Street_Housenumber": "CHERITON"}, {"City": "NORFOLK", "Functional_Location": "", "Description": "STANFORD TRAINING AREA", "District": "THETFORD", "Longitude": "0.70466365", "Y": "292099", "Postal_Code": "IP26 5EP", "Ownership": "STS MOD", "Latitude": "52.495854", "X": "583703", "Street_Housenumber": "MUNDFORD"}, {"City": "YORKSHIRE", "Functional_Location": "", "Description": "TOPCLIFFE BARRACKS", "District": "TOPCLIFFE", "Longitude": "-1.4152242", "Y": "480760", "Postal_Code": "YO7 4EQ", "Ownership": "STS MOD", "Latitude": "54.221144", "X": "438227", "Street_Housenumber": ""}, {"City": "BERKSHIRE", "Functional_Location": "", "Description": "VICTORIA BARRACKS, WINDSOR", "District": "WINDSOR", "Longitude": "149.124", "Y": "0", "Postal_Code": "SL4 IHF", "Ownership": "STS MOD", "Latitude": "-35.308", "X": "0", "Street_Housenumber": "SHEET STREET"}, {"City": "LINCOLNSHIRE", "Functional_Location": "", "Description": "WADDINGTON", "District": "LINCOLN", "Longitude": "-0.53054721", "Y": "364951", "Postal_Code": "LN5 9NB", "Ownership": "STS MOD", "Latitude": "53.172599", "X": "498319", "Street_Housenumber": "HIGH DIKE"}, {"City": "CUMBRIA", "Functional_Location": "", "Description": "WARCOP CAMP AND TRAINING AREA", "District": "WARCOP", "Longitude": "-2.3901202", "Y": "515776", "Postal_Code": "CA16 6PA", "Ownership": "STS MOD", "Latitude": "54.536623", "X": "374855", "Street_Housenumber": ""}, {"City": "CAMBRIDGESHIRE", "Functional_Location": "", "Description": "WATERBEACH BARRACKS", "District": "WATERBEACH", "Longitude": "149.124", "Y": "0", "Postal_Code": "CB5 9PA", "Ownership": "STS MOD", "Latitude": "-35.308", "X": "0", "Street_Housenumber": "DENNY END ROAD"}, {"City": "SUFFOLK", "Functional_Location": "", "Description": "WATTISHAM STATION", "District": "IPSWICH", "Longitude": "0.9677605", "Y": "251319", "Postal_Code": "IP7 7RA", "Ownership": "STS MOD", "Latitude": "52.122798", "X": "603261", "Street_Housenumber": ""}, {"City": "NORFOLK", "Functional_Location": "", "Description": "WATTON", "District": "WATTON", "Longitude": "0.82401677", "Y": "300829", "Postal_Code": "IP25", "Ownership": "STS MOD", "Latitude": "52.57157", "X": "591474", "Street_Housenumber": "NORWICH ROAD"}, {"City": "LANCASHIRE", "Functional_Location": "", "Description": "WEETON BARRACKS AND TRAINING CAMP", "District": "PRESTON", "Longitude": "-2.9376576", "Y": "436475", "Postal_Code": "PR4 3JQ", "Ownership": "STS MOD", "Latitude": "53.820878", "X": "338370", "Street_Housenumber": "WEETON BARRACKS"}, {"City": "GREATER LONDON", "Functional_Location": "", "Description": "WELLINGTON BARRACKS", "District": "LONDON", "Longitude": "-0.13769701", "Y": "179535", "Postal_Code": "SW1E 6HQ", "Ownership": "STS MOD", "Latitude": "51.499958", "X": "529363", "Street_Housenumber": "BIRDCAGE WALK"}, {"City": "GREATER LONDON", "Functional_Location": "", "Description": "WILLIAMS GDNS", "District": "PUTNEY", "Longitude": "-0.23158499", "Y": "174923", "Postal_Code": "SW15 6P", "Ownership": "STS MOD", "Latitude": "51.459938", "X": "522954", "Street_Housenumber": "WILLIAMS GARDENS"}, {"City": "SUFFOLK", "Functional_Location": "", "Description": "WOODBRIDGE AIRFIELD", "District": "WOODBRIDGE", "Longitude": "149.124", "Y": "0", "Postal_Code": "IP12 3HY", "Ownership": "STS MOD", "Latitude": "-35.308", "X": "0", "Street_Housenumber": ""}, {"City": "GREATER LONDON", "Functional_Location": "", "Description": "WOOLWICH BARRACKS", "District": "LONDON", "Longitude": "0.054511793", "Y": "178089", "Postal_Code": "SE18 4BQ", "Ownership": "STS MOD", "Latitude": "51.483745", "X": "542754", "Street_Housenumber": "WOOLWICH"}]