[

  {
    "id": 1,
    "Ownership": "STW FLOC",
    "FunctionalLocation": "12315",
    "Description": "AB KETTLEBY - NOTTINGHAM ROAD (DBS)",
    "StreetHouseNumber": "A606 NOTTINGHAM ROAD",
    "District": "",
    "City": "",
    "PostalCode": "LE14 3JA",
    "XCoordinates": "",
    "YCoordinates": ""
  },
  {
    "id": 2,
    "Ownership": "STW FLOC",
    "FunctionalLocation": "10195",
    "Description": "ABBERLEY - COMMON ROAD (SPS)",
    "StreetHouseNumber": "THE COMMON",
    "District": "",
    "City": "",
    "PostalCode": "WR6 6BA",
    "XCoordinates": "",
    "YCoordinates": ""
  },
  {
    "id": 3,
    "Ownership": "STW FLOC",
    "FunctionalLocation": "15226",
    "Description": "ABBERLEY - SEPTIC TANK (STW)",
    "StreetHouseNumber": "VILLAGE LANE",
    "District": "WORCESTERSHIRE",
    "City": "",
    "PostalCode": "WR6 6BN",
    "XCoordinates": "375400;267800",
    "YCoordinates": "375400;267800"
  },
  {
    "id": 4,
    "Ownership": "STW FLOC",
    "FunctionalLocation": "10196",
    "Description": "ABBERLEY - THE COMMON (STW)",
    "StreetHouseNumber": "THE COMMON",
    "District": "WORCESTERSHIRE",
    "City": "",
    "PostalCode": "WR6 6AY",
    "XCoordinates": "374475;267527",
    "YCoordinates": "374475;267527"
  },
  {
    "id": 5,
    "Ownership": "STW FLOC",
    "FunctionalLocation": "11741",
    "Description": "ABBERLEY - WYNNIATTES WAY (DSR)",
    "StreetHouseNumber": "WYNNIATTS WAY",
    "District": "ABBERLEY",
    "City": "",
    "PostalCode": "WR6 6AD",
    "XCoordinates": "",
    "YCoordinates": ""
  },
  {
    "id": 6,
    "Ownership": "STW FLOC",
    "FunctionalLocation": "10177",
    "Description": "ABBERLEY SUFFOLK LANE (STW)",
    "StreetHouseNumber": "SUFFOLK LANE",
    "District": "WORCESTERSHIRE",
    "City": "",
    "PostalCode": "WR6 6BE",
    "XCoordinates": "",
    "YCoordinates": ""
  },
  {
    "id": 7,
    "Ownership": "STW FLOC",
    "FunctionalLocation": "13641",
    "Description": "ABBERTON - BISHAMPTON ROAD (SPS)",
    "StreetHouseNumber": "BISHAMPTON ROAD",
    "District": "",
    "City": "",
    "PostalCode": "WR10 2NP",
    "XCoordinates": "399015;252595",
    "YCoordinates": "399015;252595"
  },
  {
    "id": 8,
    "Ownership": "STW FLOC",
    "FunctionalLocation": "13642",
    "Description": "ABBERTON - MANOR FARM (SPS)",
    "StreetHouseNumber": "MANOR FARM",
    "District": "",
    "City": "",
    "PostalCode": "WR10 2NR",
    "XCoordinates": "399526;253660",
    "YCoordinates": "399526;253660"
  },
  {
    "id": 9,
    "Ownership": "STW FLOC",
    "FunctionalLocation": "14552",
    "Description": "ABBEY BELLMOUTH (SPS)",
    "StreetHouseNumber": "WALLINGFORD ROAD",
    "District": "",
    "City": "",
    "PostalCode": "LE4 5PX",
    "XCoordinates": "458912;306615",
    "YCoordinates": "458912;306615"
  },
  {
    "id": 10,
    "Ownership": "STW FLOC",
    "FunctionalLocation": "11511",
    "Description": "ABBEY LATHE - MALTBY (STW)",
    "StreetHouseNumber": "ABBEY LANE",
    "District": "MALTBY",
    "City": "",
    "PostalCode": "S66 8NW",
    "XCoordinates": "",
    "YCoordinates": ""
  },
  {
    "id": 11,
    "Ownership": "STW FLOC",
    "FunctionalLocation": "10214",
    "Description": "ABBEYDALE III (SPS)",
    "StreetHouseNumber": "BEHIND 20 APPLETON WAY",
    "District": "",
    "City": "",
    "PostalCode": "GL3 3QR",
    "XCoordinates": "",
    "YCoordinates": ""
  },
  {
    "id": 12,
    "Ownership": "STW FLOC",
    "FunctionalLocation": "14263",
    "Description": "ABBOTS BROMLEY - ASHBROOK LANE (SPS)",
    "StreetHouseNumber": "ASHBROOK LANE",
    "District": "",
    "City": "",
    "PostalCode": "WS15 3DW",
    "XCoordinates": "408846;324272",
    "YCoordinates": "408846;324272"
  },
  {
    "id": 13,
    "Ownership": "STW FLOC",
    "FunctionalLocation": "11514",
    "Description": "ABBOTS BROMLEY (STW)",
    "StreetHouseNumber": "HALL HILL LANE OFF GOOSE LANE",
    "District": "ABBOTS BROMLEY",
    "City": "",
    "PostalCode": "WS15 3EE",
    "XCoordinates": "407900;324100",
    "YCoordinates": "407900;324100"
  },
  {
    "id": 14,
    "Ownership": "STW FLOC",
    "FunctionalLocation": "10150",
    "Description": "ABBOTTS MORTON (STW)",
    "StreetHouseNumber": "",
    "District": "ABBOTS MORTON",
    "City": "",
    "PostalCode": "WR7 4NA",
    "XCoordinates": "403289;255189",
    "YCoordinates": "403289;255189"
  },
  {
    "id": 15,
    "Ownership": "STW FLOC",
    "FunctionalLocation": "12092",
    "Description": "ABERHAFESP (DBS)",
    "StreetHouseNumber": "ABERHAFESP",
    "District": "",
    "City": "",
    "PostalCode": "SY16 3JF",
    "XCoordinates": "",
    "YCoordinates": ""
  },
  {
    "id": 16,
    "Ownership": "STW FLOC",
    "FunctionalLocation": "12093",
    "Description": "ABERHOSAN (DSR)",
    "StreetHouseNumber": "STHEAST OF ABERHOSAN NR NANT BLAEN-Y-CWM",
    "District": "ABERHOSAN",
    "City": "",
    "PostalCode": "SY20 8RB",
    "XCoordinates": "",
    "YCoordinates": ""
  },
  {
    "id": 17,
    "Ownership": "STW FLOC",
    "FunctionalLocation": "14447",
    "Description": "ABERMULE - COURT CLOSE (SPS)",
    "StreetHouseNumber": "COURT CLOSE ROAD",
    "District": "",
    "City": "",
    "PostalCode": "SY15 6NU",
    "XCoordinates": "316087;294386",
    "YCoordinates": "316087;294386"
  },
  {
    "id": 18,
    "Ownership": "STW FLOC",
    "FunctionalLocation": "10566",
    "Description": "ABERMULE (TPS)",
    "StreetHouseNumber": "",
    "District": "",
    "City": "",
    "PostalCode": "SY21 8HQ",
    "XCoordinates": "324200;307300",
    "YCoordinates": "324200;307300"
  },
  {
    "id": 19,
    "Ownership": "STW FLOC",
    "FunctionalLocation": "12094",
    "Description": "ABERTRIDWR (DSR)",
    "StreetHouseNumber": "JUNCTION WITH B4393",
    "District": "HIRNANT",
    "City": "",
    "PostalCode": "SY10 0LS",
    "XCoordinates": "",
    "YCoordinates": ""
  },
  {
    "id": 20,
    "Ownership": "STW FLOC",
    "FunctionalLocation": "14446",
    "Description": "ACKLETON - FOLLEY ROAD (SPS)",
    "StreetHouseNumber": "FOLLEY ROAD",
    "District": "ACKLETON",
    "City": "",
    "PostalCode": "WV15 5LR",
    "XCoordinates": "376951;298026",
    "YCoordinates": "376951;298026"
  },
  {
    "id": 21,
    "Ownership": "STW FLOC",
    "FunctionalLocation": "14445",
    "Description": "ACKLETON - TYTE FARM (SPS)",
    "StreetHouseNumber": "TYTE FARM",
    "District": "ACKLETON",
    "City": "",
    "PostalCode": "WV6 7JH",
    "XCoordinates": "377260;298967",
    "YCoordinates": "377260;298967"
  },
  {
    "id": 22,
    "Ownership": "STW FLOC",
    "FunctionalLocation": "10789",
    "Description": "ACKLETON/STABLEFORD (STW)",
    "StreetHouseNumber": "BROOK VALE FARM",
    "District": "STABLEFORD",
    "City": "",
    "PostalCode": "WV15 5LS",
    "XCoordinates": "",
    "YCoordinates": ""
  },
  {
    "id": 23,
    "Ownership": "STW FLOC",
    "FunctionalLocation": "18017",
    "Description": "ACOCKS GREEN - OSPREY CLOSE 11 (SPS)",
    "StreetHouseNumber": "11 OSPREY CLOSE",
    "District": "ACOCKS GREEN",
    "City": "",
    "PostalCode": "B27 7BA",
    "XCoordinates": "412861;282639",
    "YCoordinates": "412861;282639"
  },
  {
    "id": 24,
    "Ownership": "STW FLOC",
    "FunctionalLocation": "12595",
    "Description": "ACRESFORD - BURTON ROAD (SPS)",
    "StreetHouseNumber": "SWANWICKHILL",
    "District": "",
    "City": "",
    "PostalCode": "DE12 8AX",
    "XCoordinates": "429885;313161",
    "YCoordinates": "429885;313161"
  },
  {
    "id": 25,
    "Ownership": "STW FLOC",
    "FunctionalLocation": "12095",
    "Description": "ACTON BURNELL (DBS)",
    "StreetHouseNumber": "",
    "District": "ACTON BURNELL",
    "City": "",
    "PostalCode": "SY5 7PQ",
    "XCoordinates": "",
    "YCoordinates": ""
  },
  {
    "id": 26,
    "Ownership": "STW FLOC",
    "FunctionalLocation": "10568",
    "Description": "ACTON BURNELL (STW)",
    "StreetHouseNumber": "",
    "District": "ACTON BURNELL",
    "City": "",
    "PostalCode": "SY5 7PB",
    "XCoordinates": "353000;302300",
    "YCoordinates": "353000;302300"
  },
  {
    "id": 27,
    "Ownership": "STW FLOC",
    "FunctionalLocation": "18153",
    "Description": "ACTON GREEN (STW)",
    "StreetHouseNumber": "OFF MALVERN ROAD",
    "District": "B4220",
    "City": "",
    "PostalCode": "WR6 5AB",
    "XCoordinates": "369651;250554",
    "YCoordinates": "369651;250554"
  },
  {
    "id": 28,
    "Ownership": "STW FLOC",
    "FunctionalLocation": "14444",
    "Description": "ACTON TRUSSELL - LWR PENKRIDGE RD (SPS)",
    "StreetHouseNumber": "LOWER PENKRIDGE ROAD",
    "District": "",
    "City": "",
    "PostalCode": "ST17 0RJ",
    "XCoordinates": "393592;317908",
    "YCoordinates": "393592;317908"
  },
  {
    "id": 29,
    "Ownership": "STW FLOC",
    "FunctionalLocation": "18380",
    "Description": "ADBASTON - LERRIDGE LANE (STW)",
    "StreetHouseNumber": "LERRIDGE LANE",
    "District": "ADBASTON",
    "City": "",
    "PostalCode": "ST10 4QS",
    "XCoordinates": "376972;328789",
    "YCoordinates": "376972;328789"
  },
  {
    "id": 30,
    "Ownership": "STW FLOC",
    "FunctionalLocation": "18298",
    "Description": "ADBASTON - MAIN ROAD (STW)",
    "StreetHouseNumber": "MAIN ROAD",
    "District": "ADBASTON",
    "City": "",
    "PostalCode": "ST20 0RD",
    "XCoordinates": "376880;328960",
    "YCoordinates": "376880;328960"
  },
  {
    "id": 31,
    "Ownership": "STW FLOC",
    "FunctionalLocation": "11005",
    "Description": "ADBASTON (STW)",
    "StreetHouseNumber": "MARSH MEADOW",
    "District": "ADBASTON",
    "City": "",
    "PostalCode": "ST20 0QE",
    "XCoordinates": "375954;327728",
    "YCoordinates": "375954;327728"
  },
  {
    "id": 32,
    "Ownership": "STW FLOC",
    "FunctionalLocation": "14262",
    "Description": "ADBOLTON - MOORE CLOSE (SPS)",
    "StreetHouseNumber": "MOORE CLOSE",
    "District": "",
    "City": "",
    "PostalCode": "NG2 5BW",
    "XCoordinates": "459710;338201",
    "YCoordinates": "459710;338201"
  },
  {
    "id": 33,
    "Ownership": "STW FLOC",
    "FunctionalLocation": "14261",
    "Description": "ADBOLTON - SKYLARKS (SPS)",
    "StreetHouseNumber": "ADBOLTON LANE",
    "District": "",
    "City": "",
    "PostalCode": "NG2 5AS",
    "XCoordinates": "460118;338329",
    "YCoordinates": "460118;338329"
  },
  {
    "id": 34,
    "Ownership": "STW FLOC",
    "FunctionalLocation": "10569",
    "Description": "ADCOTE (SPS)",
    "StreetHouseNumber": "",
    "District": "LITTLE NESS",
    "City": "",
    "PostalCode": "SY4 2JZ",
    "XCoordinates": "342234;319567",
    "YCoordinates": "342234;319567"
  },
  {
    "id": 35,
    "Ownership": "STW FLOC",
    "FunctionalLocation": "18077",
    "Description": "ADELAIDE STREET (BPS)",
    "StreetHouseNumber": "ADELAIDE ST",
    "District": "DIGBETH",
    "City": "",
    "PostalCode": "B12 0SH",
    "XCoordinates": "",
    "YCoordinates": ""
  },
  {
    "id": 36,
    "Ownership": "STW FLOC",
    "FunctionalLocation": "18169",
    "Description": "ADFA (STW)",
    "StreetHouseNumber": "ADFA",
    "District": "NR. NEWTOWN",
    "City": "",
    "PostalCode": "SY16 3DB",
    "XCoordinates": "306200;301200",
    "YCoordinates": "306200;301200"
  },
  {
    "id": 37,
    "Ownership": "STW FLOC",
    "FunctionalLocation": "10860",
    "Description": "ADFORTON 1 (SPS)",
    "StreetHouseNumber": "ORCHARD CLOSE",
    "District": "",
    "City": "",
    "PostalCode": "SY7 0NF",
    "XCoordinates": "",
    "YCoordinates": ""
  },
  {
    "id": 38,
    "Ownership": "STW FLOC",
    "FunctionalLocation": "18559",
    "Description": "ADLINGFLEET (STW)",
    "StreetHouseNumber": "COW LANE",
    "District": "ADLINGFLEET",
    "City": "",
    "PostalCode": "DN14 8HY",
    "XCoordinates": "483732;420912",
    "YCoordinates": "483732;420912"
  },
  {
    "id": 39,
    "Ownership": "STW FLOC",
    "FunctionalLocation": "11515",
    "Description": "ADMASTON (STW)",
    "StreetHouseNumber": "",
    "District": "ADMASTON",
    "City": "",
    "PostalCode": "WS15 3NN",
    "XCoordinates": "404920;322940",
    "YCoordinates": "404920;322940"
  },
  {
    "id": 40,
    "Ownership": "STW FLOC",
    "FunctionalLocation": "10338",
    "Description": "ADMINGTON (STW)",
    "StreetHouseNumber": "",
    "District": "ADMINGTON",
    "City": "",
    "PostalCode": "CV36 4JW",
    "XCoordinates": "420251;246448",
    "YCoordinates": "420251;246448"
  },
  {
    "id": 41,
    "Ownership": "STW FLOC",
    "FunctionalLocation": "17932",
    "Description": "AISBY (STW)",
    "StreetHouseNumber": "",
    "District": "AISBY",
    "City": "",
    "PostalCode": "DN21 5RF",
    "XCoordinates": "487183;393154",
    "YCoordinates": "487183;393154"
  },
  {
    "id": 42,
    "Ownership": "STW FLOC",
    "FunctionalLocation": "14442",
    "Description": "ALBERBURY (SPS)",
    "StreetHouseNumber": "ABBEY LANE",
    "District": "",
    "City": "",
    "PostalCode": "SY5 9AE",
    "XCoordinates": "336272;314292",
    "YCoordinates": "336272;314292"
  },
  {
    "id": 43,
    "Ownership": "STW FLOC",
    "FunctionalLocation": "12596",
    "Description": "ALBERT VILLAGE - HIGHFIELDS (SPS)",
    "StreetHouseNumber": "OCCUPATION ROAD",
    "District": "",
    "City": "",
    "PostalCode": "DE11 8HA",
    "XCoordinates": "430246;317930",
    "YCoordinates": "430246;317930"
  },
  {
    "id": 44,
    "Ownership": "STW FLOC",
    "FunctionalLocation": "14443",
    "Description": "ALBRIGHTON - BARRINGTON CLOSE (SPS)",
    "StreetHouseNumber": "BARRINGTON CLOSE",
    "District": "ALBRIGHTON",
    "City": "",
    "PostalCode": "WV7 3PQ",
    "XCoordinates": "381222;304445",
    "YCoordinates": "381222;304445"
  },
  {
    "id": 45,
    "Ownership": "STW FLOC",
    "FunctionalLocation": "18292",
    "Description": "ALBRIGHTON - NEWPORT ROAD (SOF)",
    "StreetHouseNumber": "NEWPORT ROAD",
    "District": "",
    "City": "",
    "PostalCode": "WV7 3EW",
    "XCoordinates": "",
    "YCoordinates": ""
  },
  {
    "id": 46,
    "Ownership": "STW FLOC",
    "FunctionalLocation": "10877",
    "Description": "ALBRIGHTON (STW)",
    "StreetHouseNumber": "WORTHINGTON DRIVE/OFF NEWPORT ROAD",
    "District": "ALBRIGHTON",
    "City": "",
    "PostalCode": "WV7 3EJ",
    "XCoordinates": "380350;304650",
    "YCoordinates": "380350;304650"
  },
  {
    "id": 47,
    "Ownership": "STW FLOC",
    "FunctionalLocation": "13348",
    "Description": "ALCESTER - BEAUCHAMP COURT (SPS)",
    "StreetHouseNumber": "BIRMINGHAM ROAD",
    "District": "",
    "City": "",
    "PostalCode": "B49 5QD",
    "XCoordinates": "408297;258621",
    "YCoordinates": "408297;258621"
  },
  {
    "id": 48,
    "Ownership": "STW FLOC",
    "FunctionalLocation": "13349",
    "Description": "ALCESTER - BLEACHFIELD STREET (SPS)",
    "StreetHouseNumber": "BLEACHFIELD STREET",
    "District": "",
    "City": "",
    "PostalCode": "B49 5AZ",
    "XCoordinates": "408827;256914",
    "YCoordinates": "408827;256914"
  },
  {
    "id": 49,
    "Ownership": "STW FLOC",
    "FunctionalLocation": "10159",
    "Description": "ALCESTER - FAIRWATER CRESCENT (TPS)",
    "StreetHouseNumber": "FAIRWATER CRESCENT",
    "District": "",
    "City": "",
    "PostalCode": "B49 6PR",
    "XCoordinates": "409500;257600",
    "YCoordinates": "409500;257600"
  },
  {
    "id": 50,
    "Ownership": "STW FLOC",
    "FunctionalLocation": "13350",
    "Description": "ALCESTER - GREVILLE ROAD (SPS)",
    "StreetHouseNumber": "GREVILLE ROAD",
    "District": "",
    "City": "",
    "PostalCode": "B49 5QN",
    "XCoordinates": "408540;258389",
    "YCoordinates": "408540;258389"
  },
  {
    "id": 51,
    "Ownership": "STW FLOC",
    "FunctionalLocation": "13385",
    "Description": "ALCESTER - HADRIANS WALK (SPS)",
    "StreetHouseNumber": "HADRIANS WALK",
    "District": "",
    "City": "",
    "PostalCode": "B49 5HD",
    "XCoordinates": "408500;257200",
    "YCoordinates": "408500;257200"
  },
  {
    "id": 52,
    "Ownership": "STW FLOC",
    "FunctionalLocation": "13393",
    "Description": "ALCESTER - POPLAR CLOSE (SPS)",
    "StreetHouseNumber": "POPLAR CLOSE",
    "District": "OVERSLEY GREEN",
    "City": "",
    "PostalCode": "B49 6PL",
    "XCoordinates": "409800;257000",
    "YCoordinates": "409800;257000"
  },
  {
    "id": 53,
    "Ownership": "STW FLOC",
    "FunctionalLocation": "13351",
    "Description": "ALCESTER - RAGLEY MILL LANE (SPS)",
    "StreetHouseNumber": "NEWPORT DRIVE",
    "District": "ALCESTER",
    "City": "",
    "PostalCode": "B49 5BL",
    "XCoordinates": "408600;257000",
    "YCoordinates": "408600;257000"
  },
  {
    "id": 54,
    "Ownership": "STW FLOC",
    "FunctionalLocation": "13353",
    "Description": "ALCESTER - SCHOOL ROAD (SPS)",
    "StreetHouseNumber": "SCHOOL ROAD",
    "District": "",
    "City": "",
    "PostalCode": "B49 5DE",
    "XCoordinates": "409100;257700",
    "YCoordinates": "409100;257700"
  },
  {
    "id": 55,
    "Ownership": "STW FLOC",
    "FunctionalLocation": "10171",
    "Description": "ALCESTER - STRATFORD ROAD (SPS)",
    "StreetHouseNumber": "STRATFORD ROAD",
    "District": "",
    "City": "",
    "PostalCode": "B49 5AU",
    "XCoordinates": "",
    "YCoordinates": ""
  },
  {
    "id": 56,
    "Ownership": "STW FLOC",
    "FunctionalLocation": "13352",
    "Description": "ALCESTER - THROCKMORTON ROAD (SPS)",
    "StreetHouseNumber": "THROCKMORTON ROAD",
    "District": "",
    "City": "",
    "PostalCode": "B49 6QP",
    "XCoordinates": "409881;257754",
    "YCoordinates": "409881;257754"
  },
  {
    "id": 57,
    "Ownership": "STW FLOC",
    "FunctionalLocation": "10151",
    "Description": "ALCESTER (STW)",
    "StreetHouseNumber": "OVERSLEY GREEN OR MILL LANE",
    "District": "ALCESTER",
    "City": "",
    "PostalCode": "B49 6LQ",
    "XCoordinates": "408993;256643",
    "YCoordinates": "408993;256643"
  },
  {
    "id": 58,
    "Ownership": "STW FLOC",
    "FunctionalLocation": "13354",
    "Description": "ALDERMINSTER - BELL INN (SPS)",
    "StreetHouseNumber": "SHIPSTON ROAD",
    "District": "",
    "City": "",
    "PostalCode": "CV37 8NY",
    "XCoordinates": "422833;248720",
    "YCoordinates": "422833;248720"
  },
  {
    "id": 59,
    "Ownership": "STW FLOC",
    "FunctionalLocation": "13391",
    "Description": "ALDERMINSTER - OLD SCHOOL (SPS)",
    "StreetHouseNumber": "REDHILL BANK",
    "District": "",
    "City": "",
    "PostalCode": "CV37 8NY",
    "XCoordinates": "423006;248523",
    "YCoordinates": "423006;248523"
  },
  {
    "id": 60,
    "Ownership": "STW FLOC",
    "FunctionalLocation": "13418",
    "Description": "ALDERMINSTER - THORPES GAR (SPS)",
    "StreetHouseNumber": "SHIPSTON ROAD",
    "District": "",
    "City": "",
    "PostalCode": "CV37 8NY",
    "XCoordinates": "423700;247900",
    "YCoordinates": "423700;247900"
  },
  {
    "id": 61,
    "Ownership": "STW FLOC",
    "FunctionalLocation": "13419",
    "Description": "ALDERMINSTER - TITHE FARM (SPS)",
    "StreetHouseNumber": "SHIPSTON ROAD",
    "District": "",
    "City": "",
    "PostalCode": "CV37 8NX",
    "XCoordinates": "",
    "YCoordinates": ""
  },
  {
    "id": 62,
    "Ownership": "STW FLOC",
    "FunctionalLocation": "11686",
    "Description": "ALDERTON (DBS)",
    "StreetHouseNumber": "",
    "District": "ALDERTON",
    "City": "",
    "PostalCode": "GL20 8NJ",
    "XCoordinates": "",
    "YCoordinates": ""
  },
  {
    "id": 63,
    "Ownership": "STW FLOC",
    "FunctionalLocation": "10282",
    "Description": "ALDERTON (STW)",
    "StreetHouseNumber": "STOW ROAD",
    "District": "ALDERTON",
    "City": "",
    "PostalCode": "GL20 8NH",
    "XCoordinates": "399460;232927",
    "YCoordinates": "399460;232927"
  },
  {
    "id": 64,
    "Ownership": "STW FLOC",
    "FunctionalLocation": "15099",
    "Description": "ALDINGTON - MILL LANE (SPS)",
    "StreetHouseNumber": "MILL LANE",
    "District": "",
    "City": "",
    "PostalCode": "WR11 7XD",
    "XCoordinates": "406565;244076",
    "YCoordinates": "406565;244076"
  },
  {
    "id": 65,
    "Ownership": "STW FLOC",
    "FunctionalLocation": "18796",
    "Description": "ALDRIDGE - BELLA PAIS CLOSE (PPS)",
    "StreetHouseNumber": "BELLA PAIS CLOSE",
    "District": "",
    "City": "",
    "PostalCode": "WS9 0PZ",
    "XCoordinates": "405938;297490",
    "YCoordinates": "405938;297490"
  },
  {
    "id": 66,
    "Ownership": "STW FLOC",
    "FunctionalLocation": "14440",
    "Description": "ALDRIDGE - ERDINGTON ROAD (SPS)",
    "StreetHouseNumber": "ERDINGTON ROAD",
    "District": "",
    "City": "",
    "PostalCode": "WS9 0SB",
    "XCoordinates": "406148;299206",
    "YCoordinates": "406148;299206"
  },
  {
    "id": 67,
    "Ownership": "STW FLOC",
    "FunctionalLocation": "18797",
    "Description": "ALDRIDGE - HAYFIELD GROVE (PPS)",
    "StreetHouseNumber": "HAYFIELD GROVE",
    "District": "",
    "City": "",
    "PostalCode": "WS9 0AF",
    "XCoordinates": "406040;299822",
    "YCoordinates": "406040;299822"
  },
  {
    "id": 68,
    "Ownership": "STW FLOC",
    "FunctionalLocation": "14439",
    "Description": "ALDRIDGE - LINKS SIDE WAY (SPS)",
    "StreetHouseNumber": "LINKS SIDE WAY",
    "District": "",
    "City": "",
    "PostalCode": "WS9 8JY",
    "XCoordinates": "406465;301867",
    "YCoordinates": "406465;301867"
  },
  {
    "id": 69,
    "Ownership": "STW FLOC",
    "FunctionalLocation": "14438",
    "Description": "ALDRIDGE - MALVERN DRIVE (SPS)",
    "StreetHouseNumber": "MALVERN DRIVE",
    "District": "",
    "City": "",
    "PostalCode": "WS9 8JY",
    "XCoordinates": "",
    "YCoordinates": ""
  },
  {
    "id": 70,
    "Ownership": "STW FLOC",
    "FunctionalLocation": "14437",
    "Description": "ALDRIDGE - WESTGATE (SPS)",
    "StreetHouseNumber": "WESTGATE",
    "District": "",
    "City": "",
    "PostalCode": "WS9 8BU",
    "XCoordinates": "404137;301175",
    "YCoordinates": "404137;301175"
  },
  {
    "id": 71,
    "Ownership": "STW FLOC",
    "FunctionalLocation": "14836",
    "Description": "ALFRETON - HIGHFIELDS (SPS)",
    "StreetHouseNumber": "EACHWELLS LANE",
    "District": "",
    "City": "",
    "PostalCode": "DE55 7AN",
    "XCoordinates": "440502;355041",
    "YCoordinates": "440502;355041"
  },
  {
    "id": 72,
    "Ownership": "STW FLOC",
    "FunctionalLocation": "14835",
    "Description": "ALFRETON - MEADOW LANE (SPS)",
    "StreetHouseNumber": "MEADOW LANE",
    "District": "",
    "City": "",
    "PostalCode": "DE55 7FE",
    "XCoordinates": "441951;356540",
    "YCoordinates": "441951;356540"
  },
  {
    "id": 73,
    "Ownership": "STW FLOC",
    "FunctionalLocation": "11630",
    "Description": "ALFRETON (STW)",
    "StreetHouseNumber": "OFF RODGERS LANE",
    "District": "",
    "City": "",
    "PostalCode": "DE55 7FF",
    "XCoordinates": "441400;356600",
    "YCoordinates": "441400;356600"
  },
  {
    "id": 74,
    "Ownership": "STW FLOC",
    "FunctionalLocation": "10091",
    "Description": "ALFRICK - CLAY GREEN (STW)",
    "StreetHouseNumber": "CLAY GREEN",
    "District": "ALFRICK",
    "City": "",
    "PostalCode": "WR6 5HX",
    "XCoordinates": "374800;253400",
    "YCoordinates": "374800;253400"
  },
  {
    "id": 75,
    "Ownership": "STW FLOC",
    "FunctionalLocation": "10060",
    "Description": "ALFRICK - STOCKS LANE (STW)",
    "StreetHouseNumber": "STOCKS LANE",
    "District": "ALFRICK",
    "City": "",
    "PostalCode": "WR6 5HD",
    "XCoordinates": "374100;251700",
    "YCoordinates": "374100;251700"
  },
  {
    "id": 76,
    "Ownership": "STW FLOC",
    "FunctionalLocation": "11347",
    "Description": "ALKBOROUGH (STW)",
    "StreetHouseNumber": "PROSPECT LANE",
    "District": "ALKBOROUGH",
    "City": "",
    "PostalCode": "DN15 9JG",
    "XCoordinates": "487935;422116",
    "YCoordinates": "487935;422116"
  },
  {
    "id": 77,
    "Ownership": "STW FLOC",
    "FunctionalLocation": "10739",
    "Description": "ALKINGTON - SPRINGHILL (WELSH WTR) (STW)",
    "StreetHouseNumber": "SPRINGHILL",
    "District": "ALKINGTON",
    "City": "",
    "PostalCode": "SY13 3NJ",
    "XCoordinates": "",
    "YCoordinates": ""
  },
  {
    "id": 78,
    "Ownership": "STW FLOC",
    "FunctionalLocation": "10731",
    "Description": "ALKINGTON COUN HOUSES (WELSH WTR)(STW)",
    "StreetHouseNumber": "UNKNOWN",
    "District": "ALKINGTON",
    "City": "",
    "PostalCode": "SY13 3NE",
    "XCoordinates": "",
    "YCoordinates": ""
  },
  {
    "id": 79,
    "Ownership": "STW FLOC",
    "FunctionalLocation": "10790",
    "Description": "ALL STRETTON - FARM LANE (SPS)",
    "StreetHouseNumber": "FARM LANE",
    "District": "ALL STRETTON",
    "City": "",
    "PostalCode": "SY6 6HN",
    "XCoordinates": "346159;295303",
    "YCoordinates": "346159;295303"
  },
  {
    "id": 80,
    "Ownership": "STW FLOC",
    "FunctionalLocation": "11742",
    "Description": "ALLESBOROUGH (DBS)",
    "StreetHouseNumber": "ALLESBOROUGH HILL (WORCESTER ROAD)",
    "District": "PERSHORE",
    "City": "",
    "PostalCode": "WR10 1HP",
    "XCoordinates": "",
    "YCoordinates": ""
  },
  {
    "id": 81,
    "Ownership": "STW FLOC",
    "FunctionalLocation": "18421",
    "Description": "ALLESLEY - OAK LANE (SPS)",
    "StreetHouseNumber": "OAK LANE",
    "District": "ALLESLEY",
    "City": "",
    "PostalCode": "CV5 9BX",
    "XCoordinates": "427514;282083",
    "YCoordinates": "427514;282083"
  },
  {
    "id": 82,
    "Ownership": "STW FLOC",
    "FunctionalLocation": "10439",
    "Description": "ALLESLEY - PARKHILL (SPS)",
    "StreetHouseNumber": "PARKHILL LANE",
    "District": "ALLESLEY",
    "City": "",
    "PostalCode": "CV5 7PL",
    "XCoordinates": "429255;280470",
    "YCoordinates": "429255;280470"
  },
  {
    "id": 83,
    "Ownership": "STW FLOC",
    "FunctionalLocation": "12713",
    "Description": "ALLESTREE - DUFFIELD ROAD (SPS)",
    "StreetHouseNumber": "DUFFIELD ROAD",
    "District": "ALLESTREE",
    "City": "",
    "PostalCode": "DE22 2ES",
    "XCoordinates": "435258;340894",
    "YCoordinates": "435258;340894"
  },
  {
    "id": 84,
    "Ownership": "STW FLOC",
    "FunctionalLocation": "12598",
    "Description": "ALPORT (DBS)",
    "StreetHouseNumber": "",
    "District": "ALPORT",
    "City": "",
    "PostalCode": "DE45 1LG",
    "XCoordinates": "",
    "YCoordinates": ""
  },
  {
    "id": 85,
    "Ownership": "STW FLOC",
    "FunctionalLocation": "14435",
    "Description": "ALREWAS - CHURCH LANE (SPS)",
    "StreetHouseNumber": "CHURCH ROAD",
    "District": "",
    "City": "",
    "PostalCode": "DE13 7BT",
    "XCoordinates": "416875;315305",
    "YCoordinates": "416875;315305"
  },
  {
    "id": 86,
    "Ownership": "STW FLOC",
    "FunctionalLocation": "13329",
    "Description": "ALREWAS - DARK LANE (TPS)",
    "StreetHouseNumber": "DARK LANE",
    "District": "",
    "City": "",
    "PostalCode": "DE13 7DR",
    "XCoordinates": "417523;315178",
    "YCoordinates": "417523;315178"
  },
  {
    "id": 87,
    "Ownership": "STW FLOC",
    "FunctionalLocation": "11084",
    "Description": "ALREWAS (STW)",
    "StreetHouseNumber": "RYKNELD STREET",
    "District": "ALREWAS",
    "City": "",
    "PostalCode": "DE13 7BA",
    "XCoordinates": "418200;315200",
    "YCoordinates": "418200;315200"
  },
  {
    "id": 88,
    "Ownership": "STW FLOC",
    "FunctionalLocation": "17740",
    "Description": "ALSAGERS BANK - HIGH STREET (SPS)",
    "StreetHouseNumber": "HIGH STREET",
    "District": "",
    "City": "",
    "PostalCode": "ST7 8BS",
    "XCoordinates": "380794;348210",
    "YCoordinates": "380794;348210"
  },
  {
    "id": 89,
    "Ownership": "STW FLOC",
    "FunctionalLocation": "11995",
    "Description": "ALSAGERS BANK (DSR)",
    "StreetHouseNumber": "THE DRIVE",
    "District": "ALSAGERS BANK",
    "City": "",
    "PostalCode": "ST7 8BB",
    "XCoordinates": "",
    "YCoordinates": ""
  },
  {
    "id": 90,
    "Ownership": "STW FLOC",
    "FunctionalLocation": "13500",
    "Description": "ALSTONE (SPS)",
    "StreetHouseNumber": "ADJ 1 PEARTREE COTTAGE",
    "District": "",
    "City": "",
    "PostalCode": "GL20 8JD",
    "XCoordinates": "398330;232610",
    "YCoordinates": "398330;232610"
  },
  {
    "id": 91,
    "Ownership": "STW FLOC",
    "FunctionalLocation": "17739",
    "Description": "ALSTONEFIELD - MILLDALE (SPS)",
    "StreetHouseNumber": "MILLDALE",
    "District": "",
    "City": "",
    "PostalCode": "DE6 2GB",
    "XCoordinates": "413893;354660",
    "YCoordinates": "413893;354660"
  },
  {
    "id": 92,
    "Ownership": "STW FLOC",
    "FunctionalLocation": "11561",
    "Description": "ALSTONFIELD (STW)",
    "StreetHouseNumber": "",
    "District": "ALSTONEFIELD",
    "City": "",
    "PostalCode": "DE6 2FS",
    "XCoordinates": "412800;355800",
    "YCoordinates": "412800;355800"
  },
  {
    "id": 93,
    "Ownership": "STW FLOC",
    "FunctionalLocation": "11349",
    "Description": "ALTHORPE - A18 (TPS)",
    "StreetHouseNumber": "CROWLEBANK ROAD",
    "District": "",
    "City": "",
    "PostalCode": "DN17 3HT",
    "XCoordinates": "483075;409672",
    "YCoordinates": "483075;409672"
  },
  {
    "id": 94,
    "Ownership": "STW FLOC",
    "FunctionalLocation": "11372",
    "Description": "ALTHORPE - DERRYTHORPE (SPS)",
    "StreetHouseNumber": "DERRYTHORPE ROAD",
    "District": "DERRYTHORPE",
    "City": "",
    "PostalCode": "DN17 3JB",
    "XCoordinates": "483016;409027",
    "YCoordinates": "483016;409027"
  },
  {
    "id": 95,
    "Ownership": "STW FLOC",
    "FunctionalLocation": "11348",
    "Description": "ALTHORPE (STW)",
    "StreetHouseNumber": "OFF CHESSWICK CRESENT",
    "District": "",
    "City": "",
    "PostalCode": "DN17 3DQ",
    "XCoordinates": "483023;410961",
    "YCoordinates": "483023;410961"
  },
  {
    "id": 96,
    "Ownership": "STW FLOC",
    "FunctionalLocation": "13751",
    "Description": "ALTON - BATTLESTEADS (SPS)",
    "StreetHouseNumber": "BATTLESTEADS",
    "District": "",
    "City": "",
    "PostalCode": "ST10 4BG",
    "XCoordinates": "406678;342116",
    "YCoordinates": "406678;342116"
  },
  {
    "id": 97,
    "Ownership": "STW FLOC",
    "FunctionalLocation": "13733",
    "Description": "ALTON - FARLEY LANE (BOUNDARY) (SPS)",
    "StreetHouseNumber": "FARLEY LANE",
    "District": "",
    "City": "",
    "PostalCode": "ST10 2NU",
    "XCoordinates": "407253;342644",
    "YCoordinates": "407253;342644"
  },
  {
    "id": 98,
    "Ownership": "STW FLOC",
    "FunctionalLocation": "13730",
    "Description": "ALTON - SALTERSFORD LANE (SPS)",
    "StreetHouseNumber": "SALTERSFORD LANE",
    "District": "ALTON",
    "City": "",
    "PostalCode": "ST10 4AU",
    "XCoordinates": "407731;341886",
    "YCoordinates": "407731;341886"
  },
  {
    "id": 99,
    "Ownership": "STW FLOC",
    "FunctionalLocation": "13731",
    "Description": "ALTON - STATION ROAD (SPS)",
    "StreetHouseNumber": "STATION ROAD",
    "District": "ALTON",
    "City": "",
    "PostalCode": "ST10 4BY",
    "XCoordinates": "407250;342627",
    "YCoordinates": "407250;342627"
  },
  {
    "id": 100,
    "Ownership": "STW FLOC",
    "FunctionalLocation": "13732",
    "Description": "ALTON - STATION ROAD (TALBOT) (SPS)",
    "StreetHouseNumber": "JUNC RED ROAD & STATION ROAD",
    "District": "ALTON",
    "City": "",
    "PostalCode": "ST10 4BY",
    "XCoordinates": "407040;342511",
    "YCoordinates": "407040;342511"
  },
  {
    "id": 101,
    "Ownership": "STW FLOC",
    "FunctionalLocation": "10479",
    "Description": "ALTON (STW)",
    "StreetHouseNumber": "NEW ROAD",
    "District": "ALTON",
    "City": "",
    "PostalCode": "ST10 4DD",
    "XCoordinates": "407400;342600",
    "YCoordinates": "407400;342600"
  },
  {
    "id": 102,
    "Ownership": "STW FLOC",
    "FunctionalLocation": "12801",
    "Description": "ALVASTON - MARSH GREEN CLOSE (SPS)",
    "StreetHouseNumber": "MARSH GREEN CLOSE",
    "District": "ALVASTON",
    "City": "",
    "PostalCode": "DE24 0XF",
    "XCoordinates": "439648;332098",
    "YCoordinates": "439648;332098"
  },
  {
    "id": 103,
    "Ownership": "STW FLOC",
    "FunctionalLocation": "18362",
    "Description": "ALVASTON - SCREEN HOUSE (SH)",
    "StreetHouseNumber": "OFF FERNHOOK AVENUE",
    "District": "ALVASTON",
    "City": "",
    "PostalCode": "DE21 7BH",
    "XCoordinates": "439450;333700",
    "YCoordinates": "439450;333700"
  },
  {
    "id": 104,
    "Ownership": "STW FLOC",
    "FunctionalLocation": "12829",
    "Description": "ALVASTON - WOODCHESTER DRIVE (SPS)",
    "StreetHouseNumber": "WOODCHESTER DRIVE",
    "District": "ALVASTON",
    "City": "",
    "PostalCode": "DE24 0TN",
    "XCoordinates": "439784;332589",
    "YCoordinates": "439784;332589"
  },
  {
    "id": 105,
    "Ownership": "STW FLOC",
    "FunctionalLocation": "18207",
    "Description": "ALVECHURCH - THE ORCHARD (SPS)",
    "StreetHouseNumber": "OFF RADFORD ROAD",
    "District": "MILL FARM",
    "City": "",
    "PostalCode": "B48 7JY",
    "XCoordinates": "403104;272512",
    "YCoordinates": "403104;272512"
  },
  {
    "id": 106,
    "Ownership": "STW FLOC",
    "FunctionalLocation": "10152",
    "Description": "ALVECHURCH (STW)",
    "StreetHouseNumber": "REDDITCH ROAD",
    "District": "LYE BRIDGE",
    "City": "",
    "PostalCode": "B48 7RT",
    "XCoordinates": "403172;271585",
    "YCoordinates": "403172;271585"
  },
  {
    "id": 107,
    "Ownership": "STW FLOC",
    "FunctionalLocation": "13446",
    "Description": "ALVECOTE - ROBEYS LANE (SPS)",
    "StreetHouseNumber": "ROBEYS LANE",
    "District": "",
    "City": "",
    "PostalCode": "B79 0DJ",
    "XCoordinates": "424684;304727",
    "YCoordinates": "424684;304727"
  },
  {
    "id": 108,
    "Ownership": "STW FLOC",
    "FunctionalLocation": "10791",
    "Description": "ALVELEY (STW)",
    "StreetHouseNumber": "COOKS CROSS",
    "District": "TURLEY GREEN",
    "City": "",
    "PostalCode": "WV15 6LP",
    "XCoordinates": "376000;285200",
    "YCoordinates": "376000;285200"
  },
  {
    "id": 109,
    "Ownership": "STW FLOC",
    "FunctionalLocation": "17942",
    "Description": "ALVERTON (STW)",
    "StreetHouseNumber": "GRANGE LANE",
    "District": "",
    "City": "",
    "PostalCode": "NG13 9PJ",
    "XCoordinates": "479152;342436",
    "YCoordinates": "479152;342436"
  },
  {
    "id": 110,
    "Ownership": "STW FLOC",
    "FunctionalLocation": "10247",
    "Description": "ALVINGTON - ST ANNES WELL (SPS)",
    "StreetHouseNumber": "ST ANNES WELL",
    "District": "NEXT TO COLNE MILL HSE",
    "City": "",
    "PostalCode": "GL15 6AB",
    "XCoordinates": "",
    "YCoordinates": ""
  },
  {
    "id": 111,
    "Ownership": "STW FLOC",
    "FunctionalLocation": "12812",
    "Description": "AMBASTON - SHARDLOW LANE (SPS)",
    "StreetHouseNumber": "SHARDLOW LANE",
    "District": "",
    "City": "",
    "PostalCode": "DE72 3ES",
    "XCoordinates": "442930;332336",
    "YCoordinates": "442930;332336"
  },
  {
    "id": 112,
    "Ownership": "STW FLOC",
    "FunctionalLocation": "14257",
    "Description": "AMBERGATE - AMBERGROVE (SPS)",
    "StreetHouseNumber": "AMBER GROVE",
    "District": "",
    "City": "",
    "PostalCode": "DE56 2ES",
    "XCoordinates": "",
    "YCoordinates": ""
  },
  {
    "id": 113,
    "Ownership": "STW FLOC",
    "FunctionalLocation": "14259",
    "Description": "AMBERGATE - DERBY ROAD (SPS)",
    "StreetHouseNumber": "DERBY ROAD",
    "District": "",
    "City": "",
    "PostalCode": "DE56 2GD",
    "XCoordinates": "434893;350828",
    "YCoordinates": "434893;350828"
  },
  {
    "id": 114,
    "Ownership": "STW FLOC",
    "FunctionalLocation": "11639",
    "Description": "AMBERGATE - HAGWOOD (RIVERSDALE) (TPS)",
    "StreetHouseNumber": "RIVERSDALE",
    "District": "",
    "City": "",
    "PostalCode": "DE56 2EU",
    "XCoordinates": "435674;351860",
    "YCoordinates": "435674;351860"
  },
  {
    "id": 115,
    "Ownership": "STW FLOC",
    "FunctionalLocation": "14258",
    "Description": "AMBERGATE - RIDGEWAY LANE (SPS)",
    "StreetHouseNumber": "RIDGEWAY LANE",
    "District": "",
    "City": "",
    "PostalCode": "DE56 2JT",
    "XCoordinates": "436164;351505",
    "YCoordinates": "436164;351505"
  },
  {
    "id": 116,
    "Ownership": "STW FLOC",
    "FunctionalLocation": "11632",
    "Description": "AMBERGATE - RIPLEY ROAD (TPS)",
    "StreetHouseNumber": "RIPLEY ROAD",
    "District": "",
    "City": "",
    "PostalCode": "DE56 2EP",
    "XCoordinates": "434956;351745",
    "YCoordinates": "434956;351745"
  },
  {
    "id": 117,
    "Ownership": "STW FLOC",
    "FunctionalLocation": "13308",
    "Description": "AMBERGATE (RI)",
    "StreetHouseNumber": "MATLOCK ROAD",
    "District": "CRICH",
    "City": "",
    "PostalCode": "DE56 2HE",
    "XCoordinates": "",
    "YCoordinates": ""
  },
  {
    "id": 118,
    "Ownership": "STW FLOC",
    "FunctionalLocation": "13309",
    "Description": "AMBERGATE (SSR)",
    "StreetHouseNumber": "COWPER LANE/CHADWICK NICK LANE",
    "District": "FRITCHLEY",
    "City": "",
    "PostalCode": "DE56 2HL",
    "XCoordinates": "",
    "YCoordinates": ""
  },
  {
    "id": 119,
    "Ownership": "STW FLOC",
    "FunctionalLocation": "11631",
    "Description": "AMBERGATE (STW)",
    "StreetHouseNumber": "RIPLEY ROAD",
    "District": "SAWMILLS - AMBERGATE",
    "City": "",
    "PostalCode": "DE56 2EP",
    "XCoordinates": "435400;351600",
    "YCoordinates": "435400;351600"
  },
  {
    "id": 120,
    "Ownership": "STW FLOC",
    "FunctionalLocation": "14434",
    "Description": "AMBLECOTE - RUSHHALL CLOSE (SPS)",
    "StreetHouseNumber": "LONGBOAT LANE",
    "District": "",
    "City": "",
    "PostalCode": "DY8 4XE",
    "XCoordinates": "389214;285915",
    "YCoordinates": "389214;285915"
  },
  {
    "id": 121,
    "Ownership": "STW FLOC",
    "FunctionalLocation": "11345",
    "Description": "AMCOTTS - DARK LANE (SPS)",
    "StreetHouseNumber": "DARK LANE",
    "District": "",
    "City": "",
    "PostalCode": "DN17 4AN",
    "XCoordinates": "",
    "YCoordinates": ""
  },
  {
    "id": 122,
    "Ownership": "STW FLOC",
    "FunctionalLocation": "13279",
    "Description": "AMEN CORNER (BPS)",
    "StreetHouseNumber": "VEXATION LANE",
    "District": "RUFFORD",
    "City": "",
    "PostalCode": "NG22 9DB",
    "XCoordinates": "",
    "YCoordinates": ""
  },
  {
    "id": 123,
    "Ownership": "STW FLOC",
    "FunctionalLocation": "14383",
    "Description": "AMINGTON - ANGELICA (SPS)",
    "StreetHouseNumber": "ANGELICA",
    "District": "",
    "City": "",
    "PostalCode": "B77 3JZ",
    "XCoordinates": "422774;303587",
    "YCoordinates": "422774;303587"
  },
  {
    "id": 124,
    "Ownership": "STW FLOC",
    "FunctionalLocation": "17876",
    "Description": "AMINGTON - BRINDLEY DRIVE (SPS)",
    "StreetHouseNumber": "WHITLEY AVENUE",
    "District": "",
    "City": "",
    "PostalCode": "B77 3QU",
    "XCoordinates": "422428;304418",
    "YCoordinates": "422428;304418"
  },
  {
    "id": 125,
    "Ownership": "STW FLOC",
    "FunctionalLocation": "14433",
    "Description": "AMINGTON - MOOR LANE (SPS)",
    "StreetHouseNumber": "MOOR LANE",
    "District": "",
    "City": "",
    "PostalCode": "B77 3AX",
    "XCoordinates": "423087;304732",
    "YCoordinates": "423087;304732"
  },
  {
    "id": 126,
    "Ownership": "STW FLOC",
    "FunctionalLocation": "14432",
    "Description": "AMINGTON - SHUTTINGTON ROAD (SPS)",
    "StreetHouseNumber": "SHUTTINGTON ROAD",
    "District": "ALVECOTE",
    "City": "",
    "PostalCode": "B79 0ED",
    "XCoordinates": "423856;304696",
    "YCoordinates": "423856;304696"
  },
  {
    "id": 127,
    "Ownership": "STW FLOC",
    "FunctionalLocation": "11743",
    "Description": "ANCHOR FIELDS (DBS)",
    "StreetHouseNumber": "ANCHORFIELDS ROAD",
    "District": "KIDDERMINSTER",
    "City": "",
    "PostalCode": "DY10 1PP",
    "XCoordinates": "",
    "YCoordinates": ""
  },
  {
    "id": 128,
    "Ownership": "STW FLOC",
    "FunctionalLocation": "11822",
    "Description": "ANKERDINE - COLLINS GREEN (DSR/DBS)",
    "StreetHouseNumber": "B4197",
    "District": "NR BERROW GREEN",
    "City": "",
    "PostalCode": "WR6 5PT",
    "XCoordinates": "",
    "YCoordinates": ""
  },
  {
    "id": 129,
    "Ownership": "STW FLOC",
    "FunctionalLocation": "15221",
    "Description": "ANNESLEY - BADGER BOX (SPS)",
    "StreetHouseNumber": "STONECHURCH VIEW",
    "District": "",
    "City": "",
    "PostalCode": "NG15 0AN",
    "XCoordinates": "450863;353816",
    "YCoordinates": "450863;353816"
  },
  {
    "id": 130,
    "Ownership": "STW FLOC",
    "FunctionalLocation": "17556",
    "Description": "ANNESLEY - KODAK 1 (SPS)",
    "StreetHouseNumber": "KODAK WORKS",
    "District": "",
    "City": "",
    "PostalCode": "NG15 0DP",
    "XCoordinates": "449726;352833",
    "YCoordinates": "449726;352833"
  },
  {
    "id": 131,
    "Ownership": "STW FLOC",
    "FunctionalLocation": "17794",
    "Description": "ANNESLEY - MOSELEY ROAD (SPS)",
    "StreetHouseNumber": "MOSELEY ROAD",
    "District": "",
    "City": "",
    "PostalCode": "NG15 0AB",
    "XCoordinates": "451570;353838",
    "YCoordinates": "451570;353838"
  },
  {
    "id": 132,
    "Ownership": "STW FLOC",
    "FunctionalLocation": "17560",
    "Description": "ANNESLEY KODAK 2 (SPS)",
    "StreetHouseNumber": "A611 DERBY ROAD",
    "District": "",
    "City": "",
    "PostalCode": "NG15 0DR",
    "XCoordinates": "",
    "YCoordinates": ""
  },
  {
    "id": 133,
    "Ownership": "STW FLOC",
    "FunctionalLocation": "11516",
    "Description": "ANNWELL PLACE (SPS)",
    "StreetHouseNumber": "BURTON ROAD",
    "District": "ANNWELL PLACE",
    "City": "",
    "PostalCode": "LE65 2TA",
    "XCoordinates": "434030;318173",
    "YCoordinates": "434030;318173"
  },
  {
    "id": 134,
    "Ownership": "STW FLOC",
    "FunctionalLocation": "11880",
    "Description": "ANSLEY - PIPERS LANE (DBS)",
    "StreetHouseNumber": "PIPERS LANE",
    "District": "ASTLEY COMMONE",
    "City": "",
    "PostalCode": "CV10 0RG",
    "XCoordinates": "",
    "YCoordinates": ""
  },
  {
    "id": 135,
    "Ownership": "STW FLOC",
    "FunctionalLocation": "17637",
    "Description": "ANSLEY COMMON - PIPERS LANE 28 (SPS)",
    "StreetHouseNumber": "OPPOSITE NO. 28 PIPERS LANE",
    "District": "",
    "City": "",
    "PostalCode": "CV10 0RG",
    "XCoordinates": "430249;294179",
    "YCoordinates": "430249;294179"
  },
  {
    "id": 136,
    "Ownership": "STW FLOC",
    "FunctionalLocation": "14127",
    "Description": "ANSTEY (RWI)",
    "StreetHouseNumber": "ANSTEY LANE",
    "District": "ANSTEY",
    "City": "",
    "PostalCode": "LE7 7LF",
    "XCoordinates": "",
    "YCoordinates": ""
  },
  {
    "id": 137,
    "Ownership": "STW FLOC",
    "FunctionalLocation": "11350",
    "Description": "ANSTON - RACKFORD ROAD (STW)",
    "StreetHouseNumber": "RACKFORD ROAD",
    "District": "",
    "City": "",
    "PostalCode": "S25 4DE",
    "XCoordinates": "452577;384040",
    "YCoordinates": "452577;384040"
  },
  {
    "id": 138,
    "Ownership": "STW FLOC",
    "FunctionalLocation": "11987",
    "Description": "ANSTY - MAIN ROAD (SPS)",
    "StreetHouseNumber": "MAIN ROAD",
    "District": "ANSTY",
    "City": "",
    "PostalCode": "CV7 9JA",
    "XCoordinates": "439579;283127",
    "YCoordinates": "439579;283127"
  },
  {
    "id": 139,
    "Ownership": "STW FLOC",
    "FunctionalLocation": "13502",
    "Description": "APPERLEY - APPERLEY HALL FARM (SPS)",
    "StreetHouseNumber": "ADJ APPERLEY HALL FARM",
    "District": "",
    "City": "",
    "PostalCode": "GL19 4DT",
    "XCoordinates": "386215;227199",
    "YCoordinates": "386215;227199"
  },
  {
    "id": 140,
    "Ownership": "STW FLOC",
    "FunctionalLocation": "13501",
    "Description": "APPERLEY - APPERLEY PARK (SPS)",
    "StreetHouseNumber": "ADJ 53 APPERLEY PARK",
    "District": "",
    "City": "",
    "PostalCode": "GL19 4EB",
    "XCoordinates": "386549;228545",
    "YCoordinates": "386549;228545"
  },
  {
    "id": 141,
    "Ownership": "STW FLOC",
    "FunctionalLocation": "10264",
    "Description": "APPERLEY (STW)",
    "StreetHouseNumber": "GABB LANE",
    "District": "",
    "City": "",
    "PostalCode": "GL19 4DL",
    "XCoordinates": "386085;228554",
    "YCoordinates": "386085;228554"
  },
  {
    "id": 142,
    "Ownership": "STW FLOC",
    "FunctionalLocation": "11176",
    "Description": "APPLEBY MAGNA - MEASHAM ROAD (TPS)",
    "StreetHouseNumber": "MEASHAM ROAD",
    "District": "",
    "City": "",
    "PostalCode": "DE12 7BL",
    "XCoordinates": "431871;310385",
    "YCoordinates": "431871;310385"
  },
  {
    "id": 143,
    "Ownership": "STW FLOC",
    "FunctionalLocation": "17578",
    "Description": "ARDDLEEN (SPS)",
    "StreetHouseNumber": "",
    "District": "ARDDLEEN",
    "City": "",
    "PostalCode": "SY22 6TY",
    "XCoordinates": "326107;316183",
    "YCoordinates": "326107;316183"
  },
  {
    "id": 144,
    "Ownership": "STW FLOC",
    "FunctionalLocation": "10571",
    "Description": "ARDDLEEN (STW)",
    "StreetHouseNumber": "OFF A483",
    "District": "ARDDLEEN",
    "City": "",
    "PostalCode": "SY22 6RY",
    "XCoordinates": "",
    "YCoordinates": ""
  },
  {
    "id": 145,
    "Ownership": "STW FLOC",
    "FunctionalLocation": "13375",
    "Description": "ARDENS GRAFTON - EXHALL (SPS)",
    "StreetHouseNumber": "",
    "District": "",
    "City": "",
    "PostalCode": "B49 6EA",
    "XCoordinates": "411000;254900",
    "YCoordinates": "411000;254900"
  },
  {
    "id": 146,
    "Ownership": "STW FLOC",
    "FunctionalLocation": "12096",
    "Description": "ARDMILLAN CLOSE (DBS)",
    "StreetHouseNumber": "ARDMILLAN CLOSE",
    "District": "OSWESTRY",
    "City": "",
    "PostalCode": "SY11 2JZ",
    "XCoordinates": "",
    "YCoordinates": ""
  },
  {
    "id": 147,
    "Ownership": "STW FLOC",
    "FunctionalLocation": "13447",
    "Description": "ARLEY - FIR TREE LANE (SPS)",
    "StreetHouseNumber": "FIR TREE LANE",
    "District": "",
    "City": "",
    "PostalCode": "CV7 8GW",
    "XCoordinates": "429107;290163",
    "YCoordinates": "429107;290163"
  },
  {
    "id": 148,
    "Ownership": "STW FLOC",
    "FunctionalLocation": "10960",
    "Description": "ARLEY (STW)",
    "StreetHouseNumber": "STATION ROAD",
    "District": "",
    "City": "",
    "PostalCode": "CV7 8FG",
    "XCoordinates": "427800;289700",
    "YCoordinates": "427800;289700"
  },
  {
    "id": 149,
    "Ownership": "STW FLOC",
    "FunctionalLocation": "18294",
    "Description": "ARLINGHAM - BELL ORCHARD (IPS)",
    "StreetHouseNumber": "BELL ORCHARD ARLINGHAM",
    "District": "CHURCHAM",
    "City": "",
    "PostalCode": "GL2 7JN",
    "XCoordinates": "",
    "YCoordinates": ""
  },
  {
    "id": 150,
    "Ownership": "STW FLOC",
    "FunctionalLocation": "10215",
    "Description": "ARLINGHAM (STW)",
    "StreetHouseNumber": "BELL ORCHARD ARLINGHAM",
    "District": "CHURCHAM",
    "City": "",
    "PostalCode": "GL2 7JN",
    "XCoordinates": "371180;211500",
    "YCoordinates": "371180;211500"
  },
  {
    "id": 151,
    "Ownership": "STW FLOC",
    "FunctionalLocation": "14429",
    "Description": "ARMITAGE - BOATHOUSE LANE (SPS)",
    "StreetHouseNumber": "BOATHOUSE LANE",
    "District": "",
    "City": "",
    "PostalCode": "WS15 4BS",
    "XCoordinates": "408107;316244",
    "YCoordinates": "408107;316244"
  },
  {
    "id": 152,
    "Ownership": "STW FLOC",
    "FunctionalLocation": "14428",
    "Description": "ARMITAGE - RUGELEY ROAD (SPS)",
    "StreetHouseNumber": "RUGELEY ROAD",
    "District": "",
    "City": "",
    "PostalCode": "WS15 4AT",
    "XCoordinates": "407270;316360",
    "YCoordinates": "407270;316360"
  },
  {
    "id": 153,
    "Ownership": "STW FLOC",
    "FunctionalLocation": "11517",
    "Description": "ARMITAGE (STW)",
    "StreetHouseNumber": "BOATHOUSE LANE",
    "District": "ARMITAGE",
    "City": "",
    "PostalCode": "WS15 4DZ",
    "XCoordinates": "408900;316300",
    "YCoordinates": "408900;316300"
  },
  {
    "id": 154,
    "Ownership": "STW FLOC",
    "FunctionalLocation": "14254",
    "Description": "ARMTHORPE - BELLROPE ACRE (SPS)",
    "StreetHouseNumber": "BRAMPTON LANE",
    "District": "BELLROPE ACRE",
    "City": "",
    "PostalCode": "DN3 3ES",
    "XCoordinates": "462352;404144",
    "YCoordinates": "462352;404144"
  },
  {
    "id": 155,
    "Ownership": "STW FLOC",
    "FunctionalLocation": "14834",
    "Description": "ARMTHORPE - FERNBANK DRIVE (SPS)",
    "StreetHouseNumber": "FERNBANK DRIVE",
    "District": "",
    "City": "",
    "PostalCode": "DN3 3HA",
    "XCoordinates": "463026;405529",
    "YCoordinates": "463026;405529"
  },
  {
    "id": 156,
    "Ownership": "STW FLOC",
    "FunctionalLocation": "14253",
    "Description": "ARMTHORPE - HOLLY DENE (SPS)",
    "StreetHouseNumber": "HOLLY DENE",
    "District": "",
    "City": "",
    "PostalCode": "DN3 2HJ",
    "XCoordinates": "462594;405696",
    "YCoordinates": "462594;405696"
  },
  {
    "id": 157,
    "Ownership": "STW FLOC",
    "FunctionalLocation": "18414",
    "Description": "ARMTHORPE - JENKINSON GROVE (SPS)",
    "StreetHouseNumber": "JENKINSON GROVE",
    "District": "ARMTHORPE",
    "City": "",
    "PostalCode": "DN3 2FH",
    "XCoordinates": "461747;404490",
    "YCoordinates": "461747;404490"
  },
  {
    "id": 158,
    "Ownership": "STW FLOC",
    "FunctionalLocation": "17693",
    "Description": "ARMTHORPE - MULBERRY WAY (SPS)",
    "StreetHouseNumber": "MULBERRY WAY",
    "District": "",
    "City": "",
    "PostalCode": "DN3 3DD",
    "XCoordinates": "462673;404099",
    "YCoordinates": "462673;404099"
  },
  {
    "id": 159,
    "Ownership": "STW FLOC",
    "FunctionalLocation": "14252",
    "Description": "ARMTHORPE - TRANMOOR LANE (SPS)",
    "StreetHouseNumber": "TRANMOOR LANE",
    "District": "",
    "City": "",
    "PostalCode": "DN3 3BN",
    "XCoordinates": "462727;404272",
    "YCoordinates": "462727;404272"
  },
  {
    "id": 160,
    "Ownership": "STW FLOC",
    "FunctionalLocation": "18021",
    "Description": "ARMTHORPE - WEST MOOR LANE (SPS)",
    "StreetHouseNumber": "WEST MOOR LANE",
    "District": "WEST MOOR PARK",
    "City": "",
    "PostalCode": "DN3 3FB",
    "XCoordinates": "",
    "YCoordinates": ""
  },
  {
    "id": 161,
    "Ownership": "STW FLOC",
    "FunctionalLocation": "11352",
    "Description": "ARMTHORPE (STW)",
    "StreetHouseNumber": "HOLMEWOOD LANE",
    "District": "",
    "City": "",
    "PostalCode": "DN3 3EH",
    "XCoordinates": "464311;404562",
    "YCoordinates": "464311;404562"
  },
  {
    "id": 162,
    "Ownership": "STW FLOC",
    "FunctionalLocation": "12318",
    "Description": "ARNESBY (DBS)",
    "StreetHouseNumber": "WELFORD ROAD - (A5199)",
    "District": "ARNESBY",
    "City": "",
    "PostalCode": "LE8 5WB",
    "XCoordinates": "",
    "YCoordinates": ""
  },
  {
    "id": 163,
    "Ownership": "STW FLOC",
    "FunctionalLocation": "11211",
    "Description": "ARNESBY (STW)",
    "StreetHouseNumber": "LUTTERWORTH ROAD",
    "District": "",
    "City": "",
    "PostalCode": "LE8 5UP",
    "XCoordinates": "460895;291601",
    "YCoordinates": "460895;291601"
  },
  {
    "id": 164,
    "Ownership": "STW FLOC",
    "FunctionalLocation": "17890",
    "Description": "ARNOLD - EAGLE SQUARE/FRONT STREET (SPS)",
    "StreetHouseNumber": "EAGLE SQUARE",
    "District": "FRONT STREET",
    "City": "",
    "PostalCode": "NG5 7EA",
    "XCoordinates": "458502;345322",
    "YCoordinates": "458502;345322"
  },
  {
    "id": 165,
    "Ownership": "STW FLOC",
    "FunctionalLocation": "14593",
    "Description": "ARNOLD - SURGEYS LANE (DBS)",
    "StreetHouseNumber": "SURGEYS LANE",
    "District": "ST ANNES",
    "City": "",
    "PostalCode": "NG5 8FX",
    "XCoordinates": "",
    "YCoordinates": ""
  },
  {
    "id": 166,
    "Ownership": "STW FLOC",
    "FunctionalLocation": "10147",
    "Description": "ARROW - ALCESTER ROAD (TPS)",
    "StreetHouseNumber": "ARROW GRANGE",
    "District": "",
    "City": "",
    "PostalCode": "B49 5PJ",
    "XCoordinates": "408240;256676",
    "YCoordinates": "408240;256676"
  },
  {
    "id": 167,
    "Ownership": "STW FLOC",
    "FunctionalLocation": "11120",
    "Description": "ASFORDBY (TPS)",
    "StreetHouseNumber": "OFF STATION LANE",
    "District": "",
    "City": "",
    "PostalCode": "LE14 2NN",
    "XCoordinates": "470600;318300",
    "YCoordinates": "470600;318300"
  },
  {
    "id": 168,
    "Ownership": "STW FLOC",
    "FunctionalLocation": "11119",
    "Description": "ASFORDBY-STATION LANE (SPS)",
    "StreetHouseNumber": "STATION LANE",
    "District": "ASFORDBY",
    "City": "",
    "PostalCode": "LE14 3SN",
    "XCoordinates": "",
    "YCoordinates": ""
  },
  {
    "id": 169,
    "Ownership": "STW FLOC",
    "FunctionalLocation": "14990",
    "Description": "ASH 2 (DBS)",
    "StreetHouseNumber": "ASH ROAD",
    "District": "EDGELY",
    "City": "",
    "PostalCode": "SY13 4DH",
    "XCoordinates": "",
    "YCoordinates": ""
  },
  {
    "id": 170,
    "Ownership": "STW FLOC",
    "FunctionalLocation": "10572",
    "Description": "ASH MAGNA - ASH LANE (SPS)",
    "StreetHouseNumber": "ASH LANE",
    "District": "",
    "City": "",
    "PostalCode": "SY13 4DT",
    "XCoordinates": "357370;339118",
    "YCoordinates": "357370;339118"
  },
  {
    "id": 171,
    "Ownership": "STW FLOC",
    "FunctionalLocation": "12599",
    "Description": "ASHBOURNE - DERBY ROAD (DSR)",
    "StreetHouseNumber": "OFF DERBY ROAD",
    "District": "ASHBOURNE",
    "City": "",
    "PostalCode": "DE6 1HL",
    "XCoordinates": "",
    "YCoordinates": ""
  },
  {
    "id": 172,
    "Ownership": "STW FLOC",
    "FunctionalLocation": "18074",
    "Description": "ASHBOURNE - STATION ROAD (SPS)",
    "StreetHouseNumber": "BERESFORD ARMS",
    "District": "STATION ROAD",
    "City": "",
    "PostalCode": "DE6 1AA",
    "XCoordinates": "417880;346410",
    "YCoordinates": "417880;346410"
  },
  {
    "id": 173,
    "Ownership": "STW FLOC",
    "FunctionalLocation": "11562",
    "Description": "ASHBOURNE (STW)",
    "StreetHouseNumber": "WATERY LANE",
    "District": "OFF MAYFIELD ROAD",
    "City": "",
    "PostalCode": "DE6 1AS",
    "XCoordinates": "416652;346111",
    "YCoordinates": "416652;346111"
  },
  {
    "id": 174,
    "Ownership": "STW FLOC",
    "FunctionalLocation": "15234",
    "Description": "ASHBOURNE ROAD (DBS)",
    "StreetHouseNumber": "ASHBOURNE ROAD (A52)",
    "District": "WINDY HARBOUR",
    "City": "",
    "PostalCode": "ST10 3EX",
    "XCoordinates": "",
    "YCoordinates": ""
  },
  {
    "id": 175,
    "Ownership": "STW FLOC",
    "FunctionalLocation": "12597",
    "Description": "ASHBY - NOTTINGHAM ROAD (SPS)",
    "StreetHouseNumber": "NOTTINGHAM ROAD",
    "District": "",
    "City": "",
    "PostalCode": "LE65 1SS",
    "XCoordinates": "436672;317079",
    "YCoordinates": "436672;317079"
  },
  {
    "id": 176,
    "Ownership": "STW FLOC",
    "FunctionalLocation": "12591",
    "Description": "ASHBY - TUDOR CLOSE (SPS)",
    "StreetHouseNumber": "TUDOR CLOSE",
    "District": "",
    "City": "",
    "PostalCode": "LE65 1TZ",
    "XCoordinates": "435709;316095",
    "YCoordinates": "435709;316095"
  },
  {
    "id": 177,
    "Ownership": "STW FLOC",
    "FunctionalLocation": "12592",
    "Description": "ASHBY - WILLESLEY LANE (SPS)",
    "StreetHouseNumber": "WILLESLEY LANE",
    "District": "",
    "City": "",
    "PostalCode": "LE65 2TL",
    "XCoordinates": "434414;315673",
    "YCoordinates": "434414;315673"
  },
  {
    "id": 178,
    "Ownership": "STW FLOC",
    "FunctionalLocation": "11122",
    "Description": "ASHBY FOLVILLE - FOLVILLE STREET (TPS)",
    "StreetHouseNumber": "ASHBY ROAD",
    "District": "",
    "City": "",
    "PostalCode": "LE14 2TE",
    "XCoordinates": "470446;312197",
    "YCoordinates": "470446;312197"
  },
  {
    "id": 179,
    "Ownership": "STW FLOC",
    "FunctionalLocation": "11121",
    "Description": "ASHBY FOLVILLE (STW)",
    "StreetHouseNumber": "ASHBY ROAD",
    "District": "ASHBY FOLVILLE",
    "City": "",
    "PostalCode": "LE14 2TG",
    "XCoordinates": "470300;312300",
    "YCoordinates": "470300;312300"
  },
  {
    "id": 180,
    "Ownership": "STW FLOC",
    "FunctionalLocation": "12319",
    "Description": "ASHBY MAGNA - STATION ROAD (SPS)",
    "StreetHouseNumber": "STATION ROAD",
    "District": "",
    "City": "",
    "PostalCode": "LE17 5NH",
    "XCoordinates": "455706;290818",
    "YCoordinates": "455706;290818"
  },
  {
    "id": 181,
    "Ownership": "STW FLOC",
    "FunctionalLocation": "13504",
    "Description": "ASHCHURCH - ASHCHURCH SCHOOL (SPS)",
    "StreetHouseNumber": "ASHCHURCH ROAD",
    "District": "BEHIND PRIMARY SCHOOL",
    "City": "",
    "PostalCode": "GL20 8JL",
    "XCoordinates": "392875;233174",
    "YCoordinates": "392875;233174"
  },
  {
    "id": 182,
    "Ownership": "STW FLOC",
    "FunctionalLocation": "13503",
    "Description": "ASHCHURCH - DOWTY (SPS)",
    "StreetHouseNumber": "WINCANTON TRANSPORT",
    "District": "NORTHWAY LANE",
    "City": "",
    "PostalCode": "GL20 8JH",
    "XCoordinates": "392339;233449",
    "YCoordinates": "392339;233449"
  },
  {
    "id": 183,
    "Ownership": "STW FLOC",
    "FunctionalLocation": "11744",
    "Description": "ASHFIELD CRESCENT (DBS)",
    "StreetHouseNumber": "ASHFIELD CR",
    "District": "HALESOWEN",
    "City": "",
    "PostalCode": "DY9 9AY",
    "XCoordinates": "",
    "YCoordinates": ""
  },
  {
    "id": 184,
    "Ownership": "STW FLOC",
    "FunctionalLocation": "12600",
    "Description": "ASHFORD (DSR/DBS)",
    "StreetHouseNumber": "LONGSTONE LANE",
    "District": "",
    "City": "",
    "PostalCode": "DE45 1NY",
    "XCoordinates": "",
    "YCoordinates": ""
  },
  {
    "id": 185,
    "Ownership": "STW FLOC",
    "FunctionalLocation": "11587",
    "Description": "ASHFORD (TPS)",
    "StreetHouseNumber": "THE DUKES DRIVE",
    "District": "",
    "City": "",
    "PostalCode": "DE45 1QQ",
    "XCoordinates": "419663;369518",
    "YCoordinates": "419663;369518"
  },
  {
    "id": 186,
    "Ownership": "STW FLOC",
    "FunctionalLocation": "10792",
    "Description": "ASHFORD CARBONELL (STW)",
    "StreetHouseNumber": "DUMBLEHOLES LANE",
    "District": "ASHFORD CARBONEL",
    "City": "",
    "PostalCode": "SY8 4BY",
    "XCoordinates": "352260;270508",
    "YCoordinates": "352260;270508"
  },
  {
    "id": 187,
    "Ownership": "STW FLOC",
    "FunctionalLocation": "11885",
    "Description": "ASHLAWN TOWER (DSR)",
    "StreetHouseNumber": "JUST OFF ASHLAWN ROAD",
    "District": "BILTON",
    "City": "",
    "PostalCode": "CV22 5QE",
    "XCoordinates": "",
    "YCoordinates": ""
  },
  {
    "id": 188,
    "Ownership": "STW FLOC",
    "FunctionalLocation": "13506",
    "Description": "ASHLEWORTH - ASHLEWORTH GREEN (SPS)",
    "StreetHouseNumber": "ASHLEWORTH GREEN",
    "District": "NEXT TO PRIMARY SCHOOL",
    "City": "",
    "PostalCode": "GL19 4HT",
    "XCoordinates": "381305;225520",
    "YCoordinates": "381305;225520"
  },
  {
    "id": 189,
    "Ownership": "STW FLOC",
    "FunctionalLocation": "13505",
    "Description": "ASHLEWORTH - ST ANDREWS (SPS)",
    "StreetHouseNumber": "ST ANDREWS",
    "District": "NEXT TO 21 ST ANDREWS",
    "City": "",
    "PostalCode": "GL19 4JP",
    "XCoordinates": "381331;225953",
    "YCoordinates": "381331;225953"
  },
  {
    "id": 190,
    "Ownership": "STW FLOC",
    "FunctionalLocation": "11996",
    "Description": "ASHLEY (DSR)",
    "StreetHouseNumber": "PINEWOOD DRIVE",
    "District": "MARKET DRAYTON",
    "City": "",
    "PostalCode": "TF9 4LT",
    "XCoordinates": "",
    "YCoordinates": ""
  },
  {
    "id": 191,
    "Ownership": "STW FLOC",
    "FunctionalLocation": "10496",
    "Description": "ASHLEY (STW)",
    "StreetHouseNumber": "GREEN LANE",
    "District": "ASHLEY",
    "City": "",
    "PostalCode": "TF9 4QU",
    "XCoordinates": "",
    "YCoordinates": ""
  },
  {
    "id": 192,
    "Ownership": "STW FLOC",
    "FunctionalLocation": "12601",
    "Description": "ASHLEY HAY (DBS)",
    "StreetHouseNumber": "",
    "District": "WIRKSWORTH",
    "City": "",
    "PostalCode": "DE4 4AJ",
    "XCoordinates": "",
    "YCoordinates": ""
  },
  {
    "id": 193,
    "Ownership": "STW FLOC",
    "FunctionalLocation": "11687",
    "Description": "ASHMEAD 2 HIGH LEVEL RESERVOIR (DSR)",
    "StreetHouseNumber": "ASHMEAD GREEN",
    "District": "DURSLEY",
    "City": "",
    "PostalCode": "GL11 5JB",
    "XCoordinates": "",
    "YCoordinates": ""
  },
  {
    "id": 194,
    "Ownership": "STW FLOC",
    "FunctionalLocation": "15241",
    "Description": "ASHOP DIVERSION (RI)",
    "StreetHouseNumber": "SNAKE ROAD",
    "District": "BAMFORD",
    "City": "",
    "PostalCode": "S33 0BJ",
    "XCoordinates": "",
    "YCoordinates": ""
  },
  {
    "id": 195,
    "Ownership": "STW FLOC",
    "FunctionalLocation": "12602",
    "Description": "ASHOPTON (DBS)",
    "StreetHouseNumber": "ASHOPTON ROAD",
    "District": "HOPE VALLEY",
    "City": "",
    "PostalCode": "S32 2HW",
    "XCoordinates": "",
    "YCoordinates": ""
  },
  {
    "id": 196,
    "Ownership": "STW FLOC",
    "FunctionalLocation": "15220",
    "Description": "ASHOPTON COTTAGE (STW)",
    "StreetHouseNumber": "SNAKE ROAD",
    "District": "",
    "City": "",
    "PostalCode": "S33 0AX",
    "XCoordinates": "419800;386400",
    "YCoordinates": "419800;386400"
  },
  {
    "id": 197,
    "Ownership": "STW FLOC",
    "FunctionalLocation": "10414",
    "Description": "ASHORNE - VILLAGE HALL (SPS)",
    "StreetHouseNumber": "NEXT TO VILLAGE HALL",
    "District": "",
    "City": "",
    "PostalCode": "CV35 9DR",
    "XCoordinates": "430422;257645",
    "YCoordinates": "430422;257645"
  },
  {
    "id": 198,
    "Ownership": "STW FLOC",
    "FunctionalLocation": "10380",
    "Description": "ASHORNE (STW)",
    "StreetHouseNumber": "",
    "District": "ASHORNE",
    "City": "",
    "PostalCode": "CV35 9DR",
    "XCoordinates": "430457;257732",
    "YCoordinates": "430457;257732"
  },
  {
    "id": 199,
    "Ownership": "STW FLOC",
    "FunctionalLocation": "11642",
    "Description": "ASHOVER - OVERTON HALL (STW)",
    "StreetHouseNumber": "OVERTON HALL",
    "District": "OVERTON - ASHOVER",
    "City": "",
    "PostalCode": "S45 0JR",
    "XCoordinates": "434700;362100",
    "YCoordinates": "434700;362100"
  },
  {
    "id": 200,
    "Ownership": "STW FLOC",
    "FunctionalLocation": "11633",
    "Description": "ASHOVER (STW)",
    "StreetHouseNumber": "BUTTS ROAD",
    "District": "ASHOVER",
    "City": "",
    "PostalCode": "S45 0AX",
    "XCoordinates": "434652;362956",
    "YCoordinates": "434652;362956"
  }

]
